ID,Name,link,type1,type2,lat,lon,District,Address,Map_Link,note,Website
1,Trung Tâm Âm Nhạc EQMusic,https://www.facebook.com/eqmusicmd,"Hát, Nhạc cụ","Đào tạo người lớn, Đào tạo nhí",21.02893,105.766338,Phường Từ Liêm,"WinMart+, Phố Trần Hữu Dực, Phường Từ Liêm, Hà Nội, 10085, Việt Nam",https://www.google.com/maps/place/Trung+T%C3%A2m+%C3%82m+Nh%E1%BA%A1c+EQMusic/data=!4m7!3m6!1s0x3134550d73fd407d:0xab771bb94ddc2387!8m2!3d21.02893!4d105.7663382!16s%2Fg%2F11j017q9jq!19sChIJfUD9cw1VNDERhyPcTbkbd6s?authuser=0&hl=en&rclk=1,bài bản,https://www.facebook.com/eqmusicmd
2,University of Theater and Performing Arts of Hanoi,http://skda.edu.vn/,"Diễn viên, Người mẫu",Đào tạo người lớn,21.040477,105.77552,Phường Phú Diễn,"Phường Phú Diễn, Hà Nội, 10085, Việt Nam",https://www.google.com/maps/place/University+of+Theater+and+Performing+Arts+of+Hanoi/data=!4m7!3m6!1s0x313454c99118ed37:0x47ae4d512aa9200b!8m2!3d21.0404766!4d105.7755202!16s%2Fg%2F11b66fzbfg!19sChIJN-0YkclUNDERCyCpKlFNrkc?authuser=0&hl=en&rclk=1,Chuyên nghiệp,http://skda.edu.vn/
3,Vietnam National Academy of Music,http://www.vnam.edu.vn/,Hát,Đào tạo người lớn,21.022791,105.826219,Phường Ô Chợ Dừa,"Học viện Âm nhạc Quốc gia Việt Nam, Phố Hào Nam, Phường Ô Chợ Dừa, Hà Nội, 11511, Việt Nam",https://www.google.com/maps/place/Vietnam+National+Academy+of+Music/data=!4m7!3m6!1s0x3135ab77a0080205:0x5b451235586cb204!8m2!3d21.0227907!4d105.8262187!16s%2Fm%2F0284g1q!19sChIJBQIIoHerNTERBLJsWDUSRVs?authuser=0&hl=en&rclk=1,Chuyên nghiệp,http://www.vnam.edu.vn/
5,Trung Tâm Bồi Dưỡng Kỹ Năng Ngôi Sao Việt,https://www.facebook.com/ngoisaoviet.87linhnam/?locale=vi_VN,"Nhạc cụ, Hát","Đào tạo nhí, Đào tạo người lớn",20.994294,105.856714,Phường Tương Mai,"Thăng Long Garden, Phường Tương Mai, Hà Nội, 11715, Việt Nam", ,"Đào tạo chứng chỉ, bài bản", 
6,MVP - Master of Voice Power,https://www.facebook.com/MasterofVoicePower/?locale=vi_VN,"MC, Kỹ năng mềm khác",Đào tạo người lớn,21.034464,105.817702,Phường Ngọc Hà,"Ngõ 27 Phố Vạn Bảo, Phường Ngọc Hà, Hà Nội, 11119, Việt Nam", ,Đào tạo giọng nói, 
8,Trung tâm Nghệ Thuật Like Music,https://www.facebook.com/LikeMusicCenter/?locale=vi_VN,"Nhạc cụ, Nghệ thuật nhí khác",Đào tạo nhí,20.983701,105.808448,Phường Thanh Liệt,"Eco Green City, Phường Thanh Liệt, Hà Nội, 10135, Việt Nam", ,Gần đây ít hoạt động, 
9,Trung Tâm Âm Nhạc Hoa Mặt Trời,https://www.facebook.com/hoamattroi.musiccenter/?locale=vi_VN,Nhạc cụ,Đào tạo nhí,20.993572,105.836333,Phường Phương Liệt,"Ngõ 14 Phố Nguyễn Lân, Phường Phương Liệt, Hà Nội, 11412, Việt Nam", ,Gần đây k thấy HĐ, 
10,Trung Tâm Âm Nhạc HANON MUSIC,https://www.facebook.com/HanonmusicHN/,Nhạc cụ,Đào tạo nhí,20.981128,105.807907,Phường Thanh Liệt,"Ngõ 300 Nguyễn Xiển, Phường Thanh Liệt, Hà Nội, 10135, Việt Nam",  https://www.google.com/maps/place/Trung+T%C3%A2m+%C3%82m+Nh%E1%BA%A1c+HANON+MUSIC/data=!4m7!3m6!1s0x3135adf61a4a2c21:0xc921530218ebd908!8m2!3d20.9811215!4d105.8079979!16s%2Fg%2F11jz04y6ft!19sChIJISxKGvatNTERCNnrGAJTIck?authuser=0&hl=en&rclk=1 ,Gần đây k thấy hoạt động,  
11,Trung Tâm Đào Tạo Ngôi Sao Nhí Anli Academy,https://www.facebook.com/trungtamngoisaonhi/?locale=vi_VN,"MC, Người mẫu",Đào tạo nhí,21.032116,105.796771,Phường Cầu Giấy,"Ngách 48 Ngõ 165 Đường Cầu Giấy, Dịch Vọng Trung, Phường Cầu Giấy, Hà Nội, 11314, Việt Nam", ,Gần đây không hoạt động, 
12,Trung Tâm Đào Tạo Người Mẫu Nhí Lovely Kids,https://www.facebook.com/phuong27041997/photos,Người mẫu,Đào tạo nhí,21.009629,105.806332,Phường Yên Hòa,"Hoàng Ngân Plaza, 125, Phố Hoàng Ngân, Khu đô thị Trung Hòa – Nhân Chính, Phường Yên Hòa, Hà Nội, 11312, Việt Nam", ,Gần đây không hoạt động, 
13,"Trung tâm nghệ thuật Legato - Dạy học Thanh Nhạc, học hát karaoke, Piano,Guitar",https://www.facebook.com/p/Trung-t%C3%A2m-ngh%E1%BB%87-thu%E1%BA%ADt-Legato-N%C6%A1i-%C4%91am-m%C3%AA-t%E1%BB%8Fa-s%C3%A1ng-100090349085937/,"Hát, Nhạc cụ","Đào tạo nhí, Đào tạo người lớn",21.041336,105.78172,Phường Cầu Giấy,"Ngõ 261 Phố Trần Quốc Hoàn, Phường Cầu Giấy, Hà Nội, 11314, Việt Nam","  https://www.google.com/maps/place/Trung+t%C3%A2m+ngh%E1%BB%87+thu%E1%BA%ADt+Legato+-+D%E1%BA%A1y+h%E1%BB%8Dc+Thanh+Nh%E1%BA%A1c,+h%E1%BB%8Dc+h%C3%A1t+karaoke,+Piano,Guitar/data=!4m7!3m6!1s0x313455f36168d80f:0x79c4a34eb2d3cee3!8m2!3d21.0413355!4d105.7817196!16s%2Fg%2F11kqj1nf0m!19sChIJD9hoYfNVNDER487Tsk6jxHk?authuser=0&hl=en&rclk=1 ",Gần đây không hoạt động,  
14,Trung Tâm Âm Nhạc Magic Dream, ,"Nhạc cụ, Hát",Đào tạo nhí,20.919972,105.700048,Phường Chương Mỹ,"Phường Chương Mỹ, Hà Nội, 13400, Việt Nam", ,Gần đây không thấy hoạt động, 
15,Inspirito School of Music,https://inspirito.edu.vn/,Nhạc cụ,"Đào tạo nhí, Đào tạo người lớn",21.014214,105.794182,Phường Yên Hòa,"Ngõ 125 Trung Kính, Phường Yên Hòa, Hà Nội, 11312, Việt Nam",https://www.google.com/maps/place/Inspirito+School+of+Music/data=!4m7!3m6!1s0x3135ab10e9f8c7a3:0xc7e8a40e2a447035!8m2!3d21.0142136!4d105.7941819!16s%2Fg%2F11jm5clc0q!19sChIJo8f46RCrNTERNXBEKg6k6Mc?authuser=0&hl=en&rclk=1,https://www.facebook.com/Concorso.vn/photos,https://inspirito.edu.vn/
16,Lớp thanh nhạc Mr Lân,https://www.facebook.com/thanh.nhac,Hát,"Đào tạo người lớn, Đào tạo nhí",21.00906,105.720873,Xã An Khánh,"TPBank LiveBank 24/7, Đường Bình Minh, Thăng Long Victory, Xã An Khánh, Hà Nội, Việt Nam",https://www.google.com/maps/place/L%E1%BB%9Bp+thanh+nh%E1%BA%A1c+Mr+L%C3%A2n/data=!4m7!3m6!1s0x31345308dcc6b949:0x854ebfa3c6f416f0!8m2!3d21.0090598!4d105.7208729!16s%2Fg%2F11fm80_95p!19sChIJSbnG3AhTNDER8Bb0xqO_ToU?authuser=0&hl=en&rclk=1,https://www.facebook.com/groups/1554343934802571/?locale=vi_VN,https://www.facebook.com/thanh.nhac
17,Trung Tâm Đào Tạo Âm Nhạc Starlight Music,http://dayhocnhac.wordpress.com/,Nhạc cụ,Đào tạo nhí,21.003146,105.807153,Phường Thanh Xuân,"46, Ngõ 116 Nhân Hòa, Phường Thanh Xuân, Hà Nội, 10055, Việt Nam",https://www.google.com/maps/place/Trung+T%C3%A2m+%C4%90%C3%A0o+T%E1%BA%A1o+%C3%82m+Nh%E1%BA%A1c+Starlight+Music/data=!4m7!3m6!1s0x3135ac98f5464cb5:0xb7adbfd221df124c!8m2!3d21.0031456!4d105.8071527!16s%2Fg%2F11dxf0sylm!19sChIJtUxG9ZisNTERTBLfIdK_rbc?authuser=0&hl=en&rclk=1,https://www.facebook.com/p/Starlight-Music-100034708226757/?locale=vi_VN,http://dayhocnhac.wordpress.com/
18,Học viện THALIC VOICE,https://thalic.edu.vn/,"MC, Kỹ năng mềm khác",Đào tạo người lớn,20.997963,105.826129,Phường Phương Liệt,"162, Phố Nguyễn Ngọc Nại, Phường Phương Liệt, Hà Nội, 11415, Việt Nam",https://www.google.com/maps/place/H%E1%BB%8Dc+vi%E1%BB%87n+THALIC+VOICE+c%C6%A1+s%E1%BB%9F+Qu%E1%BA%ADn+Thanh+Xu%C3%A2n/data=!4m7!3m6!1s0x3135ad550a60da97:0xca924d8fe6082558!8m2!3d20.9979634!4d105.8261287!16s%2Fg%2F11vx5k91cd!19sChIJl9pgClWtNTERWCUI5o9Nkso?authuser=0&hl=en&rclk=1,https://www.facebook.com/thalicvoice.hocviengiongnoivakynang,https://thalic.edu.vn/
19,Trung tâm Âm nhạc The Classic,http://theclassic.edu.vn/,Nhạc cụ,Đào tạo nhí,20.985239,105.83983,Phường Phương Liệt,"74, Phố Định Công, Phường Phương Liệt, Hà Nội, 11718, Việt Nam",https://www.google.com/maps/place/Trung+t%C3%A2m+%C3%82m+nh%E1%BA%A1c+The+Classic/data=!4m7!3m6!1s0x3135ad9ae7a42bb3:0x420c92a8910a27d0!8m2!3d20.9852391!4d105.8398298!16s%2Fg%2F11fp7vf4lq!19sChIJsyuk55qtNTER0CcKkaiSDEI?authuser=0&hl=en&rclk=1,https://www.facebook.com/theclassicmusiccenter/photos_albums?locale=vi_VN,http://theclassic.edu.vn/
20,Trung Tâm Âm Nhạc TYTYMUSIC - Học đàn guitar piano ukulele,https://tytymusic.com/,"Hát, Nhạc cụ","Đào tạo nhí, Đào tạo người lớn",21.069633,105.797027,Phường Xuân Đỉnh,"Phường Xuân Đỉnh, Hà Nội, 10264, Việt Nam",https://www.google.com/maps/place/Trung+T%C3%A2m+%C3%82m+Nh%E1%BA%A1c+TYTYMUSIC+-+H%E1%BB%8Dc+%C4%91%C3%A0n+guitar+piano+ukulele+Ngo%E1%BA%A1i+Giao+%C4%90o%C3%A0n/data=!4m7!3m6!1s0x3135ab867b5973ed:0xddf8bd8e7ff88c8c!8m2!3d21.069633!4d105.7970266!16s%2Fg%2F11x5w102_3!19sChIJ7XNZe4arNTERjIz4f469-N0?authuser=0&hl=en&rclk=1,https://www.facebook.com/tytymusic9999/?locale=vi_VN,https://tytymusic.com/
21,"TH Skill - Trung tâm đào tạo MC, MC nhí, Kỹ năng sống", ,"MC, Kỹ năng mềm khác", ,21.190352,106.06637,Phường Kinh Bắc,"Phố Nguyễn Tự Cường, Y Na, Phường Kinh Bắc, Bắc Ninh, Tỉnh Bắc Ninh, Việt Nam","  https://www.google.com/maps/place/TH+Skill+-+Trung+t%C3%A2m+%C4%91%C3%A0o+t%E1%BA%A1o+MC,+MC+nh%C3%AD,+K%E1%BB%B9+n%C4%83ng+s%E1%BB%91ng/data=!4m7!3m6!1s0x31350dbe60b51755:0x31e6ae9caad2180c!8m2!3d21.1903521!4d106.0663702!16s%2Fg%2F11rd07q4v5!19sChIJVRe1YL4NNTERDBjSqpyu5jE?authuser=0&hl=en&rclk=1 ",Không thấy hoạt động gần đây,  
22,Traditional Music Club Unesco,http://nhactruyenthong.vn/,"Hát, Nhạc cụ","Đào tạo nhí, Đào tạo người lớn",21.02614,105.825569,Phường Ô Chợ Dừa,"Ngõ 8A Vũ Thạnh, Khu tập thể Hào Nam, Phường Ô Chợ Dừa, Hà Nội, 11511, Việt Nam",https://www.google.com/maps/place/Traditional+Music+Club+Unesco/data=!4m7!3m6!1s0x3135ab31cc46df65:0x95b332dfa95fd813!8m2!3d21.0261396!4d105.8255688!16s%2Fg%2F11dx997g_c!19sChIJZd9GzDGrNTERE9hfqd8ys5U?authuser=0&hl=en&rclk=1,Không thấy hoạt động mới gần đây,http://nhactruyenthong.vn/
23,Roseway Academy,https://roseway.edu.vn/,"MC, Kỹ năng mềm khác","Đào tạo nhí, Đào tạo người lớn",21.010452,105.830525,Phường Kim Liên,"Phố Nguyễn Ngọc Doãn, Phường Kim Liên, Hà Nội, 11520, Việt Nam",https://www.google.com/maps/place/Roseway+Academy/data=!4m7!3m6!1s0x3135abd5352cd43b:0xaf69d7fe89aba2ac!8m2!3d21.0104518!4d105.8305247!16s%2Fg%2F11vzbh2hxp!19sChIJO9QsNdWrNTERrKKrif7Xaa8?authuser=0&hl=en&rclk=1,"MC, Giọng nói, kỹ năng thuyết trình",https://roseway.edu.vn/
24,Câu lạc bộ Họa Mi, ,Nghệ thuật nhí khác,Đào tạo nhí,21.013334,105.80093,Phường Yên Hòa,"41, Phố Trung Kính, Phường Yên Hòa, Hà Nội, 10055, Việt Nam", ,Múa, 
25,Câu Lạc Bộ Moon Min,https://www.facebook.com/p/C%C3%A2u-L%E1%BA%A1c-B%E1%BB%99-Moon-Min-100046370152914/?locale=vi_VN,Nghệ thuật nhí khác,Đào tạo nhí,20.999105,105.814652,Phường Khương Đình,"Đường Nguyễn Trãi, Phường Khương Đình, Hà Nội, 11410, Việt Nam", ,Múa, 
26,Trung Tâm Bông Hoa Nhỏ,https://www.facebook.com/bong.hoa.nho.516985/photos_albums,"Nghệ thuật nhí khác, Dance",Đào tạo nhí,21.087074,105.759278,Phường Thượng Cát,"Ngách 7/43 Phố Hoàng Liên, Phường Thượng Cát, Hà Nội, 11909, Việt Nam", ,Múa, 
27,CLB Nhảy Sao Tuổi Thơ,https://www.facebook.com/CLB.Saotuoitho/?locale=vi_VN,"Nghệ thuật nhí khác, Hát, Dance",Đào tạo nhí,21.005761,105.8039,Phường Yên Hòa,"Tòa nhà Diamond Flower Tower, 48, Đường Lê Văn Lương, Phường Yên Hòa, Hà Nội, 11312, Việt Nam", ,Múa nhảy hát, 
28,Clb Nghệ Thuật Pha Lê nơi đào tạo Vũ Công chuyên nghiệp - Linh Đàm,https://www.facebook.com/p/H%E1%BB%8Dc-Vi%E1%BB%87n-Ngh%E1%BB%87-Thu%E1%BA%ADt-Pha-L%C3%AA-n%C6%A1i-%C4%91%C3%A0o-t%E1%BA%A1o-V%C5%A9-C%C3%B4ng-chuy%C3%AAn-nghi%E1%BB%87p-100063734013224/,Nghệ thuật nhí khác,Đào tạo nhí,21.014672,105.82726,Phường Đống Đa,"Ngõ 180 Phố Nguyễn Lương Bằng, Phường Đống Đa, Hà Nội, 11527, Việt Nam", ,"Múa, vũ công", 
29,Trung Tâm Âm Nhạc D. Music,https://www.facebook.com/dmusiccenter/,Nhạc cụ,Đào tạo nhí,21.127858,105.77547,Xã Thiên Lộc,"Xã Thiên Lộc, Hà Nội, 11909, Việt Nam",  https://www.google.com/maps/place/Trung+T%C3%A2m+%C3%82m+Nh%E1%BA%A1c+D.+Music/data=!4m7!3m6!1s0x3134ffe759019a41:0xa2e4a6ffd96589bd!8m2!3d21.1303303!4d105.7752618!16s%2Fg%2F11q_4b53yh!19sChIJQZoBWef_NDERvYll2f-m5KI?authuser=0&hl=en&rclk=1 ,quy mô nhỏ,  
30,Học viện Ngôi Sao - Star Academy,https://staracademy.com.vn/?fbclid=IwY2xjawOl3RxleHRuA2FlbQIxMABicmlkETFLQWs3bEZiQ1hFcXRlZHFJc3J0YwZhcHBfaWQQMjIyMDM5MTc4ODIwMDg5MgABHlbjI2qVyFWQmKdjw6OEv1H4g4UV2CJTqjTl17A6pD_Mapq_w-_iJWDLVsLL_aem_zE3cIIZ9EMPPfzqfwGokWw,"MC, Diễn viên, Nghệ thuật nhí khác, Kỹ năng mềm khác",Đào tạo nhí,20.992745,105.870442,Phường Vĩnh Tuy,"Sunshine Garden, Phường Vĩnh Tuy, Hà Nội, 11622, Việt Nam", ,Tìm lại địa điểm, 
31,CLB Nghệ Thuật Sáng Tạo Việt Nhí - Vinhome Smart City, ,Nghệ thuật nhí khác,Đào tạo nhí,20.994496,105.778915,Phường Đại Mỗ,"Khu đô thị Vinaconex 3, Phường Đại Mỗ, Hà Nội, 10070, Việt Nam", ,Vẽ, 
32,COLOR US CENTER - Vinhomes Gardenia Hàm Nghi,https://www.facebook.com/p/Color-Us-Center-100084979903560/,Nghệ thuật nhí khác,Đào tạo nhí,21.007269,105.737602,Phường Tây Mỗ,"Văn Lang 2, Vinhomes Smart City, Phường Tây Mỗ, Hà Nội, 34000, Việt Nam", ,Vẽ, 
33,F-Music,https://fmusic.edu.vn/,"Kỹ năng mềm khác, Nhạc cụ, Hát","Đào tạo nhí, Đào tạo người lớn",21.035607,105.767898,Phường Từ Liêm,"Mon City, Phường Từ Liêm, Hà Nội, 10085, Việt Nam", ,Vẽ, 
34,HAPPY ART School Geleximco,https://www.facebook.com/TruonghocnangkhieuHappyArtSchool/?locale=vi_VN,Nghệ thuật nhí khác,Đào tạo nhí,21.004993,105.733933,Phường Tây Mỗ,"Khu đô thị mới Lê Trọng Tấn Geleximco - Khu A, Phường Tây Mỗ, Hà Nội, 10070, Việt Nam", ,vẽ, 
35,Trung Tâm Nghệ Thuật Hí Hoáy,https://www.facebook.com/clbhihoay/?locale=vi_VN,Nghệ thuật nhí khác,Đào tạo nhí,21.069605,105.792875,Phường Xuân Đỉnh,"Ngõ 207 Đường Xuân Đỉnh, Cáo Đỉnh, Phường Xuân Đỉnh, Hà Nội, 10264, Việt Nam", ,"Vẽ, thủ công", 
36,Erato School of Music & Performing Arts,https://erato.com.vn/?lang=en,"Kỹ năng mềm khác, Dance, Nhạc cụ, Hát",Đào tạo nhí,21.027672,105.831289,Phường Ô Chợ Dừa,"20, Phố An Trạch, Phường Ô Chợ Dừa, Hà Nội, 10081, Việt Nam", ,Xịn, 
37,Á Châu Media,https://achau.vn/,"MC, Người mẫu, Hát, Nhạc cụ, Diễn viên, Dance","Đào tạo nhí, Đào tạo người lớn",20.995811,105.868426,Phường Vĩnh Tuy,"Canifa, Đường Số 4, Vinhomes Times City, Phường Vĩnh Tuy, Hà Nội, 11622, Việt Nam",https://www.google.com/maps/place/%C3%81+Ch%C3%A2u+Media/data=!4m7!3m6!1s0x3135ad85e1fb0e8d:0xefb0ee2fcfd61994!8m2!3d20.9958108!4d105.8684264!16s%2Fg%2F11gmgd14fr!19sChIJjQ774YWtNTERlBnWzy_usO8?authuser=0&hl=en&rclk=1, ,https://achau.vn/
38,Academy of Journalism and Communication,http://ajc.edu.vn/,MC,Đào tạo người lớn,21.037123,105.788914,Phường Cầu Giấy,"Học viện Báo chí và Tuyên truyền, 36, Đường Xuân Thủy, Phường Cầu Giấy, Hà Nội, 11314, Việt Nam",https://www.google.com/maps/place/Academy+of+Journalism+and+Communication/data=!4m7!3m6!1s0x3135ab3613967dbf:0x3e1ad0c809d813b7!8m2!3d21.0371232!4d105.7889139!16s%2Fm%2F0wzq62q!19sChIJv32WEzarNTERtxPYCcjQGj4?authuser=0&hl=en&rclk=1, ,http://ajc.edu.vn/
39,  Amazing Lighthouse - Trung tâm đào tạo MC ,https://www.facebook.com/AmazingLighthouse/?locale=vi_VN,MC,"Đào tạo nhí, Đào tạo người lớn",21.043879,105.796813,Phường Nghĩa Đô,"WinMart+, 121-123, Phố Tô Hiệu, Phường Nghĩa Đô, Hà Nội, 11307, Việt Nam", ,  , 
40,An An Piano House,https://ananpiano.com/,Nhạc cụ,"Đào tạo nhí, Đào tạo người lớn",21.018677,105.828848,Phường Đống Đa,"Nhà Hàng Dim Sum Đại Hùng, Phố Ô Chợ Dừa, Phường Đống Đa, Hà Nội, 11527, Việt Nam",https://www.google.com/maps/place/An+An+Piano+House/data=!4m7!3m6!1s0x3135ad15409c41ad:0xeae2a6f3354a773a!8m2!3d20.9964924!4d105.8059369!16s%2Fg%2F11tx5bbjw5!19sChIJrUGcQBWtNTEROndKNfOm4uo?authuser=0&hl=en&rclk=1, ,https://ananpiano.com/
41,BB Academy & Entertainment,https://www.facebook.com/info.bbplus/?locale=vi_VN,Người mẫu,"Đào tạo nhí, Đào tạo người lớn",21.012179,105.862671,Phường Hai Bà Trưng,"Ngõ 18 Phố Lương Yên, Phường Hai Bà Trưng, Hà Nội, 11626, Việt Nam", , , 
42,  BT Academy - Đào tạo giọng nói và thần thái doanh nghiệp ,http://btacademy.edu.vn/,MC,"Đào tạo nhí, Đào tạo người lớn",21.020284,105.845878,Phường Cửa Nam,"Cà Phê Lộc, 19, Phố Liên Trì, Phường Cửa Nam, Hà Nội, 11018, Việt Nam",https://www.google.com/maps/place/BT+Academy+-+%C4%90%C3%A0o+t%E1%BA%A1o+gi%E1%BB%8Dng+n%C3%B3i+v%C3%A0+th%E1%BA%A7n+th%C3%A1i+doanh+nghi%E1%BB%87p/data=!4m7!3m6!1s0x3135ab9a62f8ad67:0xc0d673a4940ea1d6!8m2!3d21.0202842!4d105.8458781!16s%2Fg%2F11xw5pn9ch!19sChIJZ634YpqrNTER1qEOlKRz1sA?authuser=0&hl=en&rclk=1,  ,http://btacademy.edu.vn/
43,  Canada Academy of Music (Học viện Âm nhạc Canada) ,http://camusic.com.vn/,"Nhạc cụ, Hát, Nghệ thuật nhí khác, Dance",Đào tạo nhí,21.019233,105.820216,Phường Ô Chợ Dừa,"146, Phố Mai Anh Tuấn, Phường Ô Chợ Dừa, Hà Nội, 10265, Việt Nam",https://www.google.com/maps/place/Canada+Academy+of+Music+%28H%E1%BB%8Dc+vi%E1%BB%87n+%C3%82m+nh%E1%BA%A1c+Canada%29/data=!4m7!3m6!1s0x3135ab5bdaca9e2d:0x4c67a4efb8412551!8m2!3d21.0192326!4d105.820216!16s%2Fg%2F11j4fkwq5m!19sChIJLZ7K2lurNTERUSVBuO-kZ0w?authuser=0&hl=en&rclk=1,  ,http://camusic.com.vn/
44,Câu Lạc Bộ Nghệ Thuật Anh Vũ,https://www.facebook.com/caulacbonghethuatanhvu/?locale=vi_VN,"Nghệ thuật nhí khác, Người mẫu, MC",Đào tạo nhí,20.929887,105.784942,Xã Bình Minh,"Khu đô thị Thanh Hà, Xã Bình Minh, Hà Nội, 10189, Việt Nam", , , 
45,  Câu lạc bộ Nghệ thuật Dance Space ,"Nhảy, múa, vẽ","Nghệ thuật nhí khác, Dance",Đào tạo nhí,21.012669,105.746401,Phường Xuân Phương,"Cầu Ngà, Phường Xuân Phương, Hà Nội, 10070, Việt Nam", ,  , 
46,  Câu lạc bộ Nghệ thuật Ngôi Sao Nhỏ ,Gần đây thấy thiên về múa,"Nghệ thuật nhí khác, Dance, Nhạc cụ, Hát",Đào tạo nhí,21.051789,105.780429,Phường Phú Diễn,"VinFast, Đường Số 11, Khu đô thị Thành phố Giao lưu, Phường Phú Diễn, Hà Nội, 10065, Việt Nam", ,  , 
47,CEG Arts Center,http://ceg.vn/,"Nghệ thuật nhí khác, Nhạc cụ",Đào tạo nhí,21.01424,105.822262,Phường Đống Đa,"Trung tâm Văn hóa - Thông tin & Thể thao Đống Đa, 22, Phố Đặng Tiến Đông, Phường Đống Đa, Hà Nội, 11527, Việt Nam",https://www.google.com/maps/place/CEG+Arts+Center/data=!4m7!3m6!1s0x3135ab7948c570fd:0x6530295483a711b1!8m2!3d21.0142397!4d105.8222619!16s%2Fg%2F11b7svbpvn!19sChIJ_XDFSHmrNTERsRGng1QpMGU?authuser=0&hl=en&rclk=1, ,http://ceg.vn/
48,  CLB năng khiếu FLYKIDS ,https://www.facebook.com/clbflykids/?locale=vi_VN,"Nghệ thuật nhí khác, Dance, MC",Đào tạo nhí,21.008869,105.730498,Xã An Khánh,"Khu đô thị mới Lê Trọng Tấn Geleximco - Khu A, Xã An Khánh, Hà Nội, 10070, Việt Nam", ,  , 
49,  CLB nghệ thuật KBN Art&Music ,https://www.facebook.com/congdongaerobicvietnam/?locale=vi_VN,"Nghệ thuật nhí khác, Dance, MC, Người mẫu",Đào tạo nhí,20.976607,105.762206,Phường Hà Đông,"Phố Nguyễn Thanh Bình, Phường Hà Đông, Hà Nội, 10170, Việt Nam", ,  , 
50,  CTY CP HỌC VIỆN NGƯỜI MẪU TRÚC (TRUC MODEL ACCADEMY) ,https://www.facebook.com/profile.php?id=100039036922926,Người mẫu,"Đào tạo người lớn, Đào tạo nhí",21.020157,105.808763,Phường Giảng Võ,"VPBank, 91, Đường Nguyễn Chí Thanh, Phường Giảng Võ, Hà Nội, 11110, Việt Nam",  https://www.google.com/maps/place/CTY+CP+H%E1%BB%8CC+VI%E1%BB%86N+NG%C6%AF%E1%BB%9CI+M%E1%BA%AAU+TR%C3%9AC+%28TRUC+MODEL+ACCADEMY%29/data=!4m7!3m6!1s0x3135ab8777b2ac55:0xb8772464beef2297!8m2!3d21.0165568!4d105.8094358!16s%2Fg%2F11s544ss7y!19sChIJVayyd4erNTERlyLvvmQkd7g?authuser=0&hl=en&rclk=1 ,  ,  
51,Cửa Hàng Nhạc Cụ Tiến Thành,https://nhaccutienthanh.com/,Nhạc cụ,"Đào tạo nhí, Đào tạo người lớn",20.998848,105.856181,Phường Bạch Mai,"Ngõ 204 Phố Hồng Mai, Phường Bạch Mai, Hà Nội, 11618, Việt Nam",https://www.google.com/maps/place/C%E1%BB%ADa+H%C3%A0ng+Nh%E1%BA%A1c+C%E1%BB%A5+Ti%E1%BA%BFn+Th%C3%A0nh/data=!4m7!3m6!1s0x3135ab34816468ad:0x6a914610f9d17a89!8m2!3d20.9988483!4d105.8561813!16s%2Fg%2F11h_w1ycp5!19sChIJrWhkgTSrNTERiXrR-RBGkWo?authuser=0&hl=en&rclk=1, ,https://nhaccutienthanh.com/
52,  Dạy Guitar Piano Thanh Xuân - Nhạc Cụ Minh Đức ,https://guitarhanoi.com/,Nhạc cụ,"Đào tạo nhí, Đào tạo người lớn",21.017955,105.810039,Phường Láng,"Ngõ 26 Phố Nguyên Hồng, Phường Láng, Hà Nội, 11528, Việt Nam",https://www.google.com/maps/place/D%E1%BA%A1y+Guitar+Piano+Thanh+Xu%C3%A2n+-+Nh%E1%BA%A1c+C%E1%BB%A5+Minh+%C4%90%E1%BB%A9c/data=!4m7!3m6!1s0x3135add45ce9795b:0x9d79ba15a2cfc23e!8m2!3d20.994364!4d105.81347!16s%2Fg%2F11vr4049_f!19sChIJW3npXNStNTERPsLPohW6eZ0?authuser=0&hl=en&rclk=1,  ,https://guitarhanoi.com/
53,  Dạy Hát Karaoke - Thanh Nhạc - Nhạc Cụ - Thanh Nhạc Chuyên Nghiệp EDmusic ,https://caithiengionghat.com/,"Nhạc cụ, Hát","Đào tạo nhí, Đào tạo người lớn",21.003906,105.860308,Phường Bạch Mai,"Ngõ 126 Phố Kim Ngưu, Phường Bạch Mai, Hà Nội, 11618, Việt Nam",https://www.google.com/maps/place/D%E1%BA%A1y+H%C3%A1t+Karaoke+-+Thanh+Nh%E1%BA%A1c+-+Nh%E1%BA%A1c+C%E1%BB%A5+-+Thanh+Nh%E1%BA%A1c+Chuy%C3%AAn+Nghi%E1%BB%87p+EDmusic+C%C6%A1+S%E1%BB%9F+Kim+Ng%C6%B0u/data=!4m7!3m6!1s0x2ed89af84c3d4c9b:0x331033b89e5566ca!8m2!3d21.0067208!4d105.861866!16s%2Fg%2F11y09_zg4h!19sChIJm0w9TPia2C4RymZVnrgzEDM?authuser=0&hl=en&rclk=1,  ,https://caithiengionghat.com/
54,  Dạy Học Hát Thanh Nhạc | Trung Tâm Nghệ Thuật Trống Đồng ,https://www.dayhat.edu.vn/,Hát,Đào tạo người lớn,21.018034,105.805642,Phường Láng,"Ngách 157/23 Phố Pháo Đài Láng, Láng Trung, Phường Láng, Hà Nội, 11528, Việt Nam",  https://www.google.com/maps/place/D%E1%BA%A1y+H%E1%BB%8Dc+H%C3%A1t+Thanh+Nh%E1%BA%A1c+%7C+Trung+T%C3%A2m+Ngh%E1%BB%87+Thu%E1%BA%ADt+Tr%E1%BB%91ng+%C4%90%E1%BB%93ng/data=!4m7!3m6!1s0x3135ad1d4f8393ab:0x8c344ad6ca8fb165!8m2!3d21.018317!4d105.8040151!16s%2Fg%2F11q1p4xzg9!19sChIJq5ODTx2tNTERZbGPytZKNIw?authuser=0&hl=en&rclk=1 ,  ,  
55,Dạy nhạc Thành Nam Music,http://thanhnammusic.com/,"Hát, Nhạc cụ","Đào tạo người lớn, Đào tạo nhí",20.974316,105.789416,Phường Hà Đông,"Kiot 19-20 CT7B KĐT Văn Quán, Phố Nguyễn Khuyến, Khu đô thị Văn Quán, Phường Hà Đông, Hà Nội, 12100, Việt Nam",https://www.google.com/maps/place/D%E1%BA%A1y+nh%E1%BA%A1c+Th%C3%A0nh+Nam+Music/data=!4m7!3m6!1s0x3135ad1da430a967:0xefe1470ea202a5b3!8m2!3d20.972321!4d105.7886209!16s%2Fg%2F11fklg719f!19sChIJZ6kwpB2tNTERs6UCog5H4e8?authuser=0&hl=en&rclk=1, ,http://thanhnammusic.com/
56,Đào tạo MC 24h,https://event24h.vn/dao-tao/dao-tao-mc/,"MC, Kỹ năng mềm khác","Đào tạo nhí, Đào tạo người lớn",21.012386,105.807319,Phường Yên Hòa,"171, Đường Nguyễn Ngọc Vũ, Hoà Mục, Phường Yên Hòa, Hà Nội, 11313, Việt Nam",  https://www.google.com/maps/place/%C4%90%C3%A0o+t%E1%BA%A1o+MC+24h/data=!4m7!3m6!1s0x3135abc8179147af:0x5aa34a2de659473a!8m2!3d21.0123857!4d105.8073191!16s%2Fg%2F11lh2zl6vw!19sChIJr0eRF8irNTEROkdZ5i1Ko1o?authuser=0&hl=en&rclk=1 , ,  
57,"  Đào tạo MC chuyên nghiệp, MC nhí Vietskill ",https://www.facebook.com/mcnhihadong/?locale=vi_VN,MC,Đào tạo nhí,21.015333,105.812587,Phường Láng,"The Caffinet, 108-C3, Ngõ C3, Phường Láng, Hà Nội, 11528, Việt Nam", ,  , 
58,FEEL Model Training Center & Agency,https://www.facebook.com/FEEL.MTC/,Người mẫu,"Đào tạo người lớn, Đào tạo nhí",21.042334,105.773648,Phường Phú Diễn,"Maruben Marketing, 120, Phố Trần Vỹ, Phường Phú Diễn, Hà Nội, 10085, Việt Nam",https://www.google.com/maps/place/FEEL+Model+Training+Center+%26+Agency/data=!4m7!3m6!1s0x313455a154365959:0xd54faa11cc2e1235!8m2!3d21.0421633!4d105.773691!16s%2Fg%2F11srl3wn7b!19sChIJWVk2VKFVNDERNRIuzBGqT9U?authuser=0&hl=en&rclk=1, ,https://www.facebook.com/FEEL.MTC/
59,Nhạc viện Melody,https://nhacvien.vn/khoa-hoc/guitar/,Nhạc cụ,"Đào tạo người lớn, Đào tạo nhí",21.003007,105.855349,Phường Bạch Mai,"189, Phố Thanh Nhàn, Phường Bạch Mai, Hà Nội, 11617, Việt Nam",  https://www.google.com/maps/place/GuitarMelody/data=!4m7!3m6!1s0x3135ac0f2159f919:0x69812f27b7ffeea6!8m2!3d21.002666!4d105.853793!16s%2Fg%2F11c74f7xdy!19sChIJGflZIQ-sNTERpu7_tycvgWk?authuser=0&hl=en&rclk=1 , ,  
61,Harmony Music Center,https://www.facebook.com/p/Harmony-Music-Center-100090044233773/,"Nghệ thuật nhí khác, Nhạc cụ",Đào tạo nhí,21.019552,105.794585,Phường Yên Hòa,"Chung cư Chelsea Residences (E2 Yên Hòa), 48, Phố Trần Kim Xuyến, Phường Yên Hòa, Hà Nội, 11312, Việt Nam", , , 
62,HERA ART - Trung tâm nghệ thuật,https://www.facebook.com/heraart.vn/,"Nghệ thuật nhí khác, Nhạc cụ, Hát","Đào tạo nhí, Đào tạo người lớn",20.969292,105.769033,Phường Hà Đông,"Phường Hà Đông, Hà Nội, 10189, Việt Nam", , , 
63,Himusic Arts,https://www.facebook.com/trungtamnghethuathimusic/?locale=vi_VN,"Nhạc cụ, Hát, Nghệ thuật nhí khác","Đào tạo nhí, Đào tạo người lớn",21.001498,105.819892,Phường Khương Đình,"Ngõ 73 Đường Nguyễn Trãi, Phường Khương Đình, Hà Nội, 11410, Việt Nam",  https://www.google.com/maps/place/Himusic+Arts/data=!4m7!3m6!1s0x3135adc9ba3d5821:0x17c1233da3c40bbd!8m2!3d21.0014976!4d105.8198916!16s%2Fg%2F11l3t8nj8l!19sChIJIVg9usmtNTERvQvEoz0jwRc?authuser=0&hl=en&rclk=1 , ,  
64,  Hoang Van Art - Trung tâm Nghệ thuật Hoàng Vân ,https://www.facebook.com/hoangvanart/?locale=vi_VN,"Nhạc cụ, Hát, Nghệ thuật nhí khác","Đào tạo nhí, Đào tạo người lớn",21.018208,105.826259,Phường Đống Đa,"Tập Thể Bộ Công An, Ngõ 31 Hoàng Cầu, Phường Đống Đa, Hà Nội, 11527, Việt Nam", ,  , 
65,"  Học Đàn 123 Cơ Sở Hà Nội - Lớp Học Guitar, Piano ",https://hocdan123.com/,Nhạc cụ,"Đào tạo nhí, Đào tạo người lớn",21.013417,105.800665,Phường Yên Hòa,"Việt Nhật Motor, 2, Phố Trung Kính, Phường Yên Hòa, Hà Nội, 11312, Việt Nam","https://www.google.com/maps/place/H%E1%BB%8Dc+%C4%90%C3%A0n+123+C%C6%A1+S%E1%BB%9F+H%C3%A0+N%E1%BB%99i+-+L%E1%BB%9Bp+H%E1%BB%8Dc+Guitar,+Piano+C%E1%BA%A7u+Gi%E1%BA%A5y/data=!4m7!3m6!1s0x3134553244e07323:0x2f464ed4e00c84cf!8m2!3d21.0134174!4d105.8006654!16s%2Fg%2F11tfnw00nm!19sChIJI3PgRDJVNDERz4QM4NRORi8?authuser=0&hl=en&rclk=1",  ,https://hocdan123.com/
66,Học Thổi Sáo,https://hocthoisao.com/,Nhạc cụ,"Đào tạo nhí, Đào tạo người lớn",21.01384,105.821164,Phường Đống Đa,"Ngách 183/4 Đặng Tiến Đông, Phường Đống Đa, Hà Nội, 11527, Việt Nam",https://www.google.com/maps/place/H%E1%BB%8Dc+Th%E1%BB%95i+S%C3%A1o/data=!4m7!3m6!1s0x3135abc96a456079:0x15237965b79538c6!8m2!3d21.0138396!4d105.8211637!16s%2Fg%2F11rcffs00m!19sChIJeWBFasmrNTERxjiVt2V5IxU?authuser=0&hl=en&rclk=1, ,https://hocthoisao.com/
67,  Học viện Âm nhạc Thăng Long (Thang Long Music Academy) ,https://www.facebook.com/p/Th%C4%83ng-Long-Music-Center-Trung-t%C3%A2m-gi%C3%A1o-d%E1%BB%A5c-ngh%E1%BB%87-thu%E1%BA%ADt-250-Minh-Khai-61563344037309/,"Nhạc cụ, Hát","Đào tạo nhí, Đào tạo người lớn",20.994679,105.857027,Phường Tương Mai,"Ngõ 250, Thăng Long Garden, Phường Tương Mai, Hà Nội, 11715, Việt Nam", ,  , 
68,  Học viện Âm nhạc Young Hit Young Beat ,http://school.younghityoungbeat.vn/,"Nhạc cụ, Hát, Dance, Nghệ thuật nhí khác","Đào tạo nhí, Đào tạo người lớn",21.007061,105.802153,Phường Yên Hòa,"Toà nhà 29T2, 29T2, Phố Nguyễn Thị Thập, Khu đô thị Trung Hòa – Nhân Chính, Phường Yên Hòa, Hà Nội, 11312, Việt Nam", ,  , 
69,Học viện đào tạo âm nhạc Kul Academy,http://kulacademy.vn/,Hát,Đào tạo người lớn,21.00405,105.816616,Phường Thanh Xuân,"Phố Giáp Nhất, Phường Thanh Xuân, Hà Nội, 11417, Việt Nam",  https://www.google.com/maps/place/H%E1%BB%8Dc+vi%E1%BB%87n+%C4%91%C3%A0o+t%E1%BA%A1o+%C3%A2m+nh%E1%BA%A1c+Kul+Academy/data=!4m7!3m6!1s0x3135ad25400cf3e1:0x544b41f405941637!8m2!3d21.0037998!4d105.8166155!16s%2Fg%2F11j09srrkv!19sChIJ4fMMQCWtNTERNxaUBfRBS1Q?authuser=0&hl=en&rclk=1 , ,  
70,Hạ Vy Academy,https://www.facebook.com/profile.php?id=100057127792850,"Hát, Người mẫu","Đào tạo người lớn, Đào tạo nhí",21.017411,105.802315,Phường Yên Hòa,"Ngõ 79 Đường Nguyễn Khang, Phường Yên Hòa, Hà Nội, 11312, Việt Nam", , , 
71,  Học viện kỹ năng mềm SHINE Academy ,https://www.facebook.com/shineacademyvietnam/?locale=vi_VN,"MC, Kỹ năng mềm khác","Đào tạo người lớn, Đào tạo nhí",21.027913,105.813318,Phường Giảng Võ,"Ngõ 31 Đường Nguyễn Chí Thanh, Phường Giảng Võ, Hà Nội, 11110, Việt Nam", ,  , 
72,Học Viện MC Talent,https://www.mctalent.vn/,"MC, Kỹ năng mềm khác","Đào tạo nhí, Đào tạo người lớn",20.990008,105.804999,Phường Khương Đình,"23, Đường Nguyễn Xiển, Phường Khương Đình, Hà Nội, 11410, Việt Nam",  https://www.google.com/maps/place/H%E1%BB%8Dc+Vi%E1%BB%87n+MC+Talent/data=!4m7!3m6!1s0x3135ad002cc44eaf:0x46e5a3b870ae6b4b!8m2!3d20.9972731!4d105.7973677!16s%2Fg%2F11vyb5wvc3!19sChIJr07ELACtNTERS2uucLij5UY?authuser=0&hl=en&rclk=1 , ,  
73,  Intro Art - Tổ chức giáo dục và biểu diễn nghệ thuật ,https://www.facebook.com/p/Intro-Art-Gi%C3%A1o-d%E1%BB%A5c-%C3%A2m-nh%E1%BA%A1c-100069106876212/,"Hát, Nhạc cụ","Đào tạo nhí, Đào tạo người lớn",20.983883,105.775297,Phường Hà Đông,"Phường Hà Đông, Hà Nội, 10070, Việt Nam",  https://www.google.com/maps/place/Intro+Art+-+T%E1%BB%95+ch%E1%BB%A9c+gi%C3%A1o+d%E1%BB%A5c+v%C3%A0+bi%E1%BB%83u+di%E1%BB%85n+ngh%E1%BB%87+thu%E1%BA%ADt/data=!4m7!3m6!1s0x3135ab79b9fb01e7:0x49d89e1f9a837c28!8m2!3d20.9838834!4d105.7752973!16s%2Fg%2F11j67l1y3q!19sChIJ5wH7uXmrNTERKHyDmh-e2Ek?authuser=0&hl=en&rclk=1 ,  ,  
74,Kat Kids Dance Academy,https://www.facebook.com/DanceAcademyforkids/,Dance,Đào tạo nhí,21.580428,105.833011,Đồng Quang,"Phố Nguyễn Công Hoan, Đồng Quang, Phường Phan Đình Phùng, Thái Nguyên, Tỉnh Thái Nguyên, Việt Nam", , , 
75,L.A.M Zone,https://www.facebook.com/lamzone2023,Nhạc cụ,Đào tạo nhí,21.069161,105.803568,Phường Xuân Đỉnh,"Quan La, Phường Xuân Đỉnh, Hà Nội, 10264, Việt Nam",https://www.google.com/maps/place/L.A.M+Zone/data=!4m7!3m6!1s0x3135abf2a1f2c18f:0x6a6d401880039911!8m2!3d21.0691609!4d105.8035682!16s%2Fg%2F11v3y_djzr!19sChIJj8HyofKrNTEREZkDgBhAbWo?authuser=0&hl=en&rclk=1, ,https://www.facebook.com/lamzone2023
76,  Levon Guitar - Học Guitar Thanh Xuân ,https://levonguitar.com/,Nhạc cụ,"Đào tạo nhí, Đào tạo người lớn",21.023989,105.846229,Phường Cửa Nam,"Đại sứ quán Cuba, 65, Phố Lý Thường Kiệt, Phường Cửa Nam, Hà Nội, 10242, Việt Nam",https://www.google.com/maps/place/Levon+Guitar+-+H%E1%BB%8Dc+Guitar+Thanh+Xu%C3%A2n+-+H%C3%A0+N%E1%BB%99i/data=!4m7!3m6!1s0x3135adb45c1407ef:0xe43b9446692e1643!8m2!3d20.9983985!4d105.8009379!16s%2Fg%2F11t28351v7!19sChIJ7wcUXLStNTERQxYuaUaUO-Q?authuser=0&hl=en&rclk=1,  ,https://levonguitar.com/
77,Lớp Học Guitar Bee Music,https://beemusic.com.vn/khoa-thanh-nhac/,"Hát, Nhạc cụ","Đào tạo nhí, Đào tạo người lớn",21.018901,105.803384,Phường Láng,"Ngõ 814 Đường Láng, Phường Láng, Hà Nội, 11528, Việt Nam",https://www.google.com/maps/place/L%E1%BB%9Bp+H%E1%BB%8Dc+Guitar+Bee+Music/data=!4m7!3m6!1s0x3135ab7b5bb7cd91:0x4d11a6698a8207f2!8m2!3d21.0189014!4d105.8033844!16s%2Fg%2F11rgt85vdm!19sChIJkc23W3urNTER8geCimmmEU0?authuser=0&hl=en&rclk=1, ,https://m.facebook.com/beemusic20/
78,  Lớp Học Guitar PNV MUSIC ,https://www.facebook.com/lophocguitarpnv/,Nhạc cụ,"Đào tạo nhí, Đào tạo người lớn",21.03167,105.801201,Phường Nghĩa Đô,"Ngõ 68 Đường Cầu Giấy, Phường Nghĩa Đô, Hà Nội, 11307, Việt Nam",https://www.google.com/maps/place/L%E1%BB%9Bp+H%E1%BB%8Dc+Guitar+PNV+MUSIC+C%E1%BA%A7u+Gi%E1%BA%A5y+-+20+ng%C3%B5+68+C%E1%BA%A7u+Gi%E1%BA%A5y/data=!4m7!3m6!1s0x3135ab76c0f83383:0x2f039cb3be1e1aef!8m2!3d21.0316704!4d105.8012008!16s%2Fg%2F11hzxyytkh!19sChIJgzP4wHarNTER7xoevrOcAy8?authuser=0&hl=en&rclk=1,  ,http://pnvguitarclass.com/?utm_source=gmb&utm_medium=referral
79,  Lớp học kĩ năng MC trẻ em MVP Kids ,https://kiddihub.com/chi-tiet/lop-hoc-ki-nang-mc-tre-em-mvp-kids-trung-kinh,MC,Đào tạo nhí,21.029687,105.785212,Phường Cầu Giấy,"Công Ty TNHH IZISolution, Số 4, Ngõ 82 Phố Dịch Vọng Hậu, Phường Cầu Giấy, Hà Nội, 11314, Việt Nam", ,  , 
80,  Mẫu Nhí Tài Năng Nhí - Kids' Talent ,https://www.facebook.com/TrungTamDaoTaoMauNhiKidsTalent/?locale=vi_VN,Người mẫu,Đào tạo nhí,21.025021,105.833623,Phường Văn Miếu - Quốc Tử Giám,"Phố Phan Văn Trị, Phường Văn Miếu - Quốc Tử Giám, Hà Nội, 11511, Việt Nam", ,  , 
81,  MC World - Trung Tâm Đào Tạo MC Uy Tín - Chuyên Nghiệp ,https://mcworld.vn/,"MC, Kỹ năng mềm khác","Đào tạo nhí, Đào tạo người lớn",21.007061,105.802153,Phường Yên Hòa,"Toà nhà 29T2, 29T2, Phố Nguyễn Thị Thập, Khu đô thị Trung Hòa – Nhân Chính, Phường Yên Hòa, Hà Nội, 11312, Việt Nam",https://www.google.com/maps/place/MC+World+-+Trung+T%C3%A2m+%C4%90%C3%A0o+T%E1%BA%A1o+MC+Uy+T%C3%ADn+-+Chuy%C3%AAn+Nghi%E1%BB%87p/data=!4m7!3m6!1s0x3135ab4e74734fbf:0xf3f43da0dec91f6d!8m2!3d21.0070612!4d105.8021534!16s%2Fg%2F11jkwww0km!19sChIJv09zdE6rNTERbR_J3qA99PM?authuser=0&hl=en&rclk=1,  ,https://mcworld.vn/
82,Mr Thuong Art,http://www.thanhnhac.vn/,"Hát, Kỹ năng mềm khác","Đào tạo nhí, Đào tạo người lớn",21.023123,105.801162,Phường Láng,"Ngõ 1194 Đường Láng, Láng Thượng, Phường Láng, Hà Nội, 11528, Việt Nam",https://www.google.com/maps/place/Mr+Thuong+Art/data=!4m7!3m6!1s0x3135ab6620ffff37:0x6c67ae92aa251be6!8m2!3d21.0228355!4d105.8012591!16s%2Fg%2F11gz9hsp5!19sChIJN___IGarNTER5hslqpKuZ2w?authuser=0&hl=en&rclk=1, ,http://www.thanhnhac.vn/
83,MT Group,https://mt-group.com.vn/,"Người mẫu, MC, Dance",Đào tạo nhí,21.032479,105.787662,Phường Cầu Giấy,"Ngõ 25 Phố Dịch Vọng Hậu, Dịch Vọng Hậu, Phường Cầu Giấy, Hà Nội, 11314, Việt Nam",https://www.google.com/maps/place/MT+Group/data=!4m7!3m6!1s0x3135ab66c4c7774d:0x2557483f541acff6!8m2!3d21.0324793!4d105.7876623!16s%2Fg%2F11p0656m9q!19sChIJTXfHxGarNTER9s8aVD9IVyU?authuser=0&hl=en&rclk=1, ,https://mt-group.com.vn/
84,MTC Kids Music,https://www.facebook.com/trungtamdayhocguitarpianothanhnhactaihanoi/?locale=vi_VN,"Hát, Nhạc cụ",Đào tạo nhí,21.002732,105.802122,Phường Thanh Xuân,"Golden West Residence, 2, Phố Lê Văn Thiêm, Phường Thanh Xuân, Hà Nội, 11417, Việt Nam", , , 
85,Music Art - Lớp học piano cô Thanh Tâm,https://www.facebook.com/thanhtam6868/,Nhạc cụ,"Đào tạo nhí, Đào tạo người lớn",21.034558,105.737054,Xã Sơn Đồng,"Ngõ 29 Đường Tỉnh 422B, Xã Sơn Đồng, Hà Nội, 10085, Việt Nam",  https://www.google.com/maps/place/Music+Art+-+L%E1%BB%9Bp+h%E1%BB%8Dc+piano+c%C3%B4+Thanh+T%C3%A2m/data=!4m7!3m6!1s0x3134558821954713:0x96b747bcf5ebc004!8m2!3d21.0345584!4d105.7370541!16s%2Fg%2F11s0s48b19!19sChIJE0eVIYhVNDERBMDr9bxHt5Y?authuser=0&hl=en&rclk=1 , ,  
86,Music Talent,http://musictalent.edu.vn/,"MC, Hát, Dance, Nhạc cụ","Đào tạo nhí, Đào tạo người lớn",20.985837,105.78438,Phường Hà Đông,"Phường Hà Đông, Hà Nội, 12011, Việt Nam",https://www.google.com/maps/place/Music+Talent+H%C3%A0+%C4%90%C3%B4ng/data=!4m7!3m6!1s0x3135accea896dff1:0x52b649dbbcb39e80!8m2!3d20.9858367!4d105.7843798!16s%2Fg%2F11cm03clc3!19sChIJ8d-WqM6sNTERgJ6zvNtJtlI?authuser=0&hl=en&rclk=1, ,http://musictalent.edu.vn/
87,My My Piano House,https://mypianohouse.com.vn/khoa-hoc-oline,"Hát, Nhạc cụ","Đào tạo nhí, Đào tạo người lớn",21.024131,105.804304,Phường Láng,"Ngõ 106 Phố Chùa Láng, Phường Láng, Hà Nội, 11528, Việt Nam",  https://www.google.com/maps/place/My+My+Piano+House+-+S%E1%BB%91+02+Ng%C3%B5+05+Ao+Sen/data=!4m7!3m6!1s0x313455e174772ff7:0xe40c18d77185d198!8m2!3d20.9923492!4d105.8143168!16s%2Fg%2F11h48y655c!19sChIJ9y93dOFVNDERmNGFcdcYDOQ?authuser=0&hl=en&rclk=1 , ,  
88,Năng khiếu thiếu nhi Sao,https://www.facebook.com/sao.linh.am/,"Hát, Nhạc cụ, MC, Dance, Nghệ thuật nhí khác",Đào tạo nhí,21.034464,105.817702,Phường Ngọc Hà,"Ngõ 27 Phố Vạn Bảo, Phường Ngọc Hà, Hà Nội, 11119, Việt Nam", , , 
89,Nghệ Thuật Xu’smin,https://www.facebook.com/xumin2608/?locale=vi_VN,"Hát, Nhạc cụ, MC, Dance, Nghệ thuật nhí khác, Người mẫu, Diễn viên",Đào tạo nhí,20.961835,105.79643,Phường Hà Đông,"Khu Tập Thể Tỉnh Đội Phúc La, Khu đô thị Xa La, Phường Hà Đông, Hà Nội, 12100, Việt Nam", , , 
90,Piano Art,https://pianoart.vn/hinh-thuc-dao-tao-am-nhac-tai-musiclight.html,Nhạc cụ,"Đào tạo nhí, Đào tạo người lớn",21.036417,105.779235,Phường Từ Liêm,"Đài tưởng niệm Liệt sĩ Phường Mai Dịch, Đường Hồ Tùng Mậu, Phường Từ Liêm, Hà Nội, 10085, Việt Nam", , , 
91,PIANO ĐỆM HÁT.,https://www.facebook.com/pianodemhat.edu,"Hát, Nhạc cụ","Đào tạo nhí, Đào tạo người lớn",21.013811,105.817539,Phường Đống Đa,"Ngõ 151A Phố Thái Hà, Phường Đống Đa, Hà Nội, 11527, Việt Nam",https://www.google.com/maps/place/PIANO+%C4%90%E1%BB%86M+H%C3%81T./data=!4m7!3m6!1s0x3135ab14785f5e31:0x19330dadf963690f!8m2!3d21.0138106!4d105.8175389!16s%2Fg%2F11mxytk0bp!19sChIJMV5feBSrNTERD2lj-a0NMxk?authuser=0&hl=en&rclk=1, ,https://www.facebook.com/pianodemhat.edu
92,Piano Home,https://pianohome.vn/,"Hát, Nhạc cụ","Đào tạo người lớn, Đào tạo nhí",21.00413,105.846404,Phường Bạch Mai,"Ngách 40/2 Tạ Quang Bửu, Phường Bạch Mai, Hà Nội, 11618, Việt Nam",https://www.google.com/maps/place/Piano+Home/data=!4m7!3m6!1s0x3135ab7b0f99dad7:0xa2662a6a8f4dcece!8m2!3d21.0183399!4d105.8175694!16s%2Fg%2F11k701pvvw!19sChIJ19qZD3urNTERzs5Nj2oqZqI?authuser=0&hl=en&rclk=1, ,https://pianohome.vn/
93,PINK PIANO,https://www.facebook.com/AnhNguyetPiano0855811688/,Nhạc cụ,Đào tạo nhí,20.982462,105.851574,Phường Hoàng Mai,"Ngõ 147B Phố Tân Mai, Phường Hoàng Mai, Hà Nội, 11720, Việt Nam",  https://www.google.com/maps/place/PINK+PIANO/data=!4m7!3m6!1s0x3135ad003e12f9c5:0xc9665cf0ea43fe63!8m2!3d20.9823014!4d105.8511125!16s%2Fg%2F11y76m1npd!19sChIJxfkSPgCtNTERY_5D6vBcZsk?authuser=0&hl=en&rclk=1 , ,  
94,Polaris Art & Music School,https://polaris.edu.vn/,"Nhạc cụ, Hát, Nghệ thuật nhí khác",Đào tạo nhí,21.011093,105.84847,Phường Hai Bà Trưng,"Bộ Xây dựng, 37, Phố Lê Đại Hành, Phường Hai Bà Trưng, Hà Nội, 10058, Việt Nam", , , 
95,POPS Music School,https://popmusic.vn/,"Nhạc cụ, Hát","Đào tạo nhí, Đào tạo người lớn",21.034464,105.817702,Phường Ngọc Hà,"Ngõ 27 Phố Vạn Bảo, Phường Ngọc Hà, Hà Nội, 11119, Việt Nam", , , 
96,"  Rosie Music - Đào tạo Piano, Guitar, Thanh nhạc ",https://rosie.vn/,"Hát, Nhạc cụ","Đào tạo nhí, Đào tạo người lớn",21.007618,105.805721,Phường Yên Hòa,"banca  jsha·win, b56, Ngõ 117 Phố Nguyễn Thị Định, Phường Yên Hòa, Hà Nội, 11312, Việt Nam", ,  , 
97,Học viện ngôi sao Việt Nam,https://www.facebook.com/VietnamStarAcademy,"MC, Người mẫu",Đào tạo nhí,21.018931,105.82745,Phường Đống Đa,"25, Phố Nguyễn Hy Quang, Phường Đống Đa, Hà Nội, 10178, Việt Nam", , , 
98,  Sensory Music Academy - Trung tâm đào tạo âm nhạc Sensory ,https://www.facebook.com/SensoryMusicAcademy/,"Nhạc cụ, Hát",Đào tạo nhí,20.995195,105.838208,Phường Phương Liệt,"Phố Phương Liệt, Phường Phương Liệt, Hà Nội, 11412, Việt Nam", ,  , 
99,Sky Music Center,https://skymusic.vn/,Nhạc cụ,"Đào tạo nhí, Đào tạo người lớn",21.038389,105.872727,Phường Bồ Đề,"Ngách 99/2 Phố Ái Mộ, Phường Bồ Đề, Hà Nội, 10245, Việt Nam",https://www.google.com/maps/place/Sky+Music+Center/data=!4m7!3m6!1s0x3135a978ad4c0f29:0xcc907ecc8c4f3a9e!8m2!3d21.0400464!4d105.872781!16s%2Fg%2F11btrr710r!19sChIJKQ9MrXipNTERnjpPjMx-kMw?authuser=0&hl=en&rclk=1, ,https://skymusic.vn/
100,Sol Art,https://www.facebook.com/solartvietnam/photos_albums?locale=vi_VN,"Nhạc cụ, Hát, Nghệ thuật nhí khác",Đào tạo nhí,21.033858,105.813644,Phường Giảng Võ,"Trường Quốc tế Hà Nội, 48, Phố Liễu Giai, Phường Giảng Võ, Hà Nội, 11110, Việt Nam", , , 
101,Sunrise Music Academy,https://www.google.com/search?q=Trung+T%C3%A2m+%C3%82m+Nh%E1%BA%A1c+SUNSHINE+MUSIC&sca_esv=73e86a78892c9231&cs=1&udm=1&sxsrf=AE3TifN2bbcmgAxep_XkpN7h3ZJYDZteIw%3A1765351775973&ei=XyE5afqNO4bj2roP2sj_kAw&ved=0ahUKEwi6uYrsv7KRAxWGsVYBHVrkH8IQ4dUDCBE&uact=5&oq=Trung+T%C3%A2m+%C3%82m+Nh%E1%BA%A1c+SUNSHINE+MUSIC&gs_lp=EhZnd3Mtd2l6LW1vZGVsZXNzLWxvY2FsIiRUcnVuZyBUw6JtIMOCbSBOaOG6oWMgU1VOU0hJTkUgTVVTSUMyBBAjGCcyBhAAGBYYHjICECYyAhAmMgIQJjIIEAAYogQYiQUyBRAAGO8FMgUQABjvBTIIEAAYgAQYogRIhwlQwwNYwwNwAXgAkAEAmAFxoAFxqgEDMC4xuAEDyAEA-AEBmAICoAKEAZgDAIgGAZIHAzEuMaAH-AmyBwMwLjG4B3rCBwMyLTLIBw-ACAA&sclient=gws-wiz-modeless-local&lqi=CiRUcnVuZyBUw6JtIMOCbSBOaOG6oWMgU1VOU0hJTkUgTVVTSUNI4ZOv88itgIAIWj4QABABEAIQAxAEEAUYABgBGAIYAxgEGAUiJHRydW5nIHTDom0gw6JtIG5o4bqhYyBzdW5zaGluZSBtdXNpY5IBC211c2ljX3N0b3Jl#rlimm=8305738282597856511,Nhạc cụ,Đào tạo nhí,20.983824,105.744354,Phường Dương Nội,"Khu đô thị mới Lê Trọng Tấn Geleximco - Khu C, Phường Dương Nội, Hà Nội, 10070, Việt Nam", , , 
102,Thanh nhạc Voice Academy,http://www.voiceacademy.vn/,Hát,"Đào tạo nhí, Đào tạo người lớn",21.018551,105.817444,Phường Ô Chợ Dừa,"Ngõ 59 Láng Hạ, Phường Ô Chợ Dừa, Hà Nội, 11511, Việt Nam",https://www.google.com/maps/place/Thanh+nh%E1%BA%A1c+Voice+Academy/data=!4m7!3m6!1s0x3135ad09e793ba0b:0xb9b2c014ee30040e!8m2!3d21.0000578!4d105.8470137!16s%2Fg%2F11nxfymzrm!19sChIJC7qT5wmtNTERDgQw7hTAsrk?authuser=0&hl=en&rclk=1, ,http://www.voiceacademy.vn/
103,"  Thanh Thanh - Đào tạo Giọng nói, MC, Thuyết trình ",http://www.thanhthanhvoice.com/,MC,Đào tạo người lớn,21.017673,105.808335,Phường Láng,"Ngõ 97 Đường Nguyễn Chí Thanh, Phường Láng, Hà Nội, 11528, Việt Nam","https://www.google.com/maps/place/Thanh+Thanh+-+%C4%90%C3%A0o+t%E1%BA%A1o+Gi%E1%BB%8Dng+n%C3%B3i,+MC,+Thuy%E1%BA%BFt+tr%C3%ACnh/data=!4m7!3m6!1s0x3135ab54fab6e14f:0xae487e3ea8a39a02!8m2!3d21.0176734!4d105.8083351!16s%2Fg%2F11scgj8g5b!19sChIJT-G2-lSrNTERApqjqD5-SK4?authuser=0&hl=en&rclk=1",  ,http://www.thanhthanhvoice.com/
104,The Rock & Pop Academy Hanoi,https://rpahanoi.edu.vn/cac-khoa-hoc-am-nhac/,"Nhạc cụ, Hát, Dance","Đào tạo nhí, Đào tạo người lớn",21.005912,105.807126,Phường Thanh Xuân,"Ngõ 21 Đường Lê Văn Lương, Phường Thanh Xuân, Hà Nội, 11417, Việt Nam", , , 
105,Trung Tâm ABC Talent,https://abctalent.edu.vn/,"Hát, Nhạc cụ, Nghệ thuật nhí khác",Đào tạo nhí,21.064569,105.799992,Phường Xuân Đỉnh,"Phố Nguyễn Hữu Liêu, Khu Ngoại giao đoàn, Phường Xuân Đỉnh, Hà Nội, 10264, Việt Nam", , , 
106,Trung tâm Alpha Music,https://www.facebook.com/alphamusichadong191/?locale=vi_VN,"Hát, Nhạc cụ, Nghệ thuật nhí khác",Đào tạo nhí,20.965416,105.77562,Phường Hà Đông,"Đường Tô Hiệu, Phường Hà Đông, Hà Nội, 10189, Việt Nam", , , 
107,  Trung Tâm Art House Academy ,https://www.facebook.com/trungtamarthouse/?locale=vi_VN,Nhạc cụ,Đào tạo nhí,20.997717,105.804693,Phường Thanh Xuân,"Phố Nguyễn Huy Tưởng, Phường Thanh Xuân, Hà Nội, 11417, Việt Nam", ,  , 
108,Trung Tâm Art Music,https://www.facebook.com/artmusic.vn/?locale=vi_VN,Nhạc cụ,Đào tạo nhí,20.973805,105.819986,Phường Định Công,"KĐT Kim Văn - Kim Lũ, Phường Định Công, Hà Nội, 11717, Việt Nam", , , 
109,  Trung Tâm Âm Nhạc • Trung Tâm Nghệ Thuật Moon Music • Cs3 • Piano • Organ • Thanh Nhạc ,https://www.facebook.com/ttntmoonmusic/?locale=vi_VN,"Nhạc cụ, Hát",Đào tạo nhí,20.984056,105.888007,Phường Vĩnh Hưng,"Ngõ 141 Phố Nam Dư, Phường Vĩnh Hưng, Hà Nội, 11712, Việt Nam",https://www.google.com/maps/place/Trung+T%C3%A2m+%C3%82m+Nh%E1%BA%A1c+%E2%80%A2+Trung+T%C3%A2m+Ngh%E1%BB%87+Thu%E1%BA%ADt+Moon+Music+%E2%80%A2+Cs3+%E2%80%A2+Piano+%E2%80%A2+Organ+%E2%80%A2+Thanh+Nh%E1%BA%A1c/data=!4m7!3m6!1s0x3135afb1a3bfa34d:0x371c1bb4d616e252!8m2!3d20.9840558!4d105.8880066!16s%2Fg%2F11khcblrn9!19sChIJTaO_o7GvNTERUuIW1rQbHDc?authuser=0&hl=en&rclk=1,  ,http://moonmusicvn.com/
110,Trung tâm Âm nhạc Anthony Music,https://www.facebook.com/profile.php?id=61550495580267#,"Nhạc cụ, Hát",Đào tạo nhí,20.925837,105.713676,Phường Chương Mỹ,"Phường Chương Mỹ, Hà Nội, 13400, Việt Nam", , , 
111,  Trung tâm âm nhạc Big Wave ( Piano guitar ukulele thanh nhạc ) ,https://www.bigwave.id.vn/,"Nhạc cụ, Hát",Đào tạo nhí,20.991252,105.9442,Xã Gia Lâm,"Vinhomes Ocean Park, Xã Gia Lâm, Hà Nội, 17710, Việt Nam",https://www.google.com/maps/place/Trung+t%C3%A2m+%C3%A2m+nh%E1%BA%A1c+Big+Wave+%28+Piano+guitar+ukulele+thanh+nh%E1%BA%A1c+%29/data=!4m7!3m6!1s0x3135af41c9fda157:0x886561f05833fffc!8m2!3d20.9912216!4d105.9438679!16s%2Fg%2F11v9mt0m_j!19sChIJV6H9yUGvNTER_P8zWPBhZYg?authuser=0&hl=en&rclk=1,  ,https://www.tiktok.com/@hocpianoeasy?_t=8fC5RnXH2cT&_r=1
112,  Trung tâm Âm Nhạc BK Music ,https://bkmusic.com.vn/,"Nhạc cụ, Hát","Đào tạo nhí, Đào tạo người lớn",21.003084,105.845606,Phường Bạch Mai,"Trường Tiểu học Lê Văn Tám, 74, Ngõ 40 Phố Tạ Quang Bửu, Phường Bạch Mai, Hà Nội, 11618, Việt Nam", ,  , 
113,Trung tâm âm nhạc Đức Trí,https://www.facebook.com/p/Trung-T%C3%A2m-%C3%82m-Nh%E1%BA%A1c-%C4%90%E1%BB%A9c-Tr%C3%AD-100093951563748/,Nhạc cụ,Đào tạo nhí,20.929394,105.788633,Xã Bình Minh,"Khu đô thị Thanh Hà, Xã Bình Minh, Hà Nội, 10189, Việt Nam", , , 
114,  Trung Tâm Âm Nhạc H.Music ,https://www.facebook.com/p/H-music-100064005853730/,"Hát, Nhạc cụ","Đào tạo người lớn, Đào tạo nhí",21.090552,105.670835,Xã Đan Phượng,"Xã Đan Phượng, Hà Nội, Việt Nam", ,  , 
115,Trung tâm Âm Nhạc HP Music,https://hpmusic.vn/khoa-hoc-vocal/,"Nhạc cụ, Hát",Đào tạo nhí,20.986328,105.790435,Phường Đại Mỗ,"Ngách 67/61 Đường Phùng Khoang, Phường Đại Mỗ, Hà Nội, 12011, Việt Nam", , , 
116,Trung Tâm Âm Nhạc MIHU,https://www.facebook.com/MihuPiano/,"Nhạc cụ, MC, Hát, Nghệ thuật nhí khác",Đào tạo nhí,21.041096,105.92819,Phường Phúc Lợi,"4, Ngách 201/2 Đường Phúc Lợi, Phường Phúc Lợi, Hà Nội, 08443, Việt Nam", , , 
117,Trung tâm âm nhạc Music Hub Atelier,https://musichubatelier.vn/,Nhạc cụ,"Đào tạo nhí, Đào tạo người lớn",21.000692,105.807538,Phường Thanh Xuân,"98, Ngõ 98 vVũ Trọng Phụng, Phường Thanh Xuân, Hà Nội, 10055, Việt Nam",https://www.google.com/maps/place/Trung+t%C3%A2m+%C3%A2m+nh%E1%BA%A1c+Music+Hub+Atelier/data=!4m7!3m6!1s0x3135ad82d6f02a97:0xf03ff931747f8eeb!8m2!3d21.0006922!4d105.8075375!16s%2Fg%2F11yj8v3t7_!19sChIJlyrw1oKtNTER645_dDH5P_A?authuser=0&hl=en&rclk=1, ,https://musichubatelier.vn/
118,  Trung Tâm Âm Nhạc Music PAT ,https://www.facebook.com/TrungtamamnhacMusicPat/,"Nhạc cụ, Hát","Đào tạo nhí, Đào tạo người lớn",21.013163,105.8556,Phường Hai Bà Trưng,"Phố Đồng Nhân, Phường Hai Bà Trưng, Hà Nội, 11626, Việt Nam", ,  , 
119,  Trung Tâm Âm Nhạc Music Star , ,"Nhạc cụ, Hát, Nghệ thuật nhí khác","Đào tạo nhí, Đào tạo người lớn",21.050487,105.779289,Phường Phú Diễn,"A1-A2, Đường số 5, An Bình City, Phường Phú Diễn, Hà Nội, 10065, Việt Nam", ,  , 
120,  Trung tâm Âm nhạc Nam Dương ,https://www.facebook.com/p/Nam-Duong-Music-100083269484120/,Nhạc cụ,Đào tạo nhí,21.050415,105.783731,Phường Nghĩa Đô,"Khu đô thị Hoàng Quốc Việt, Phường Nghĩa Đô, Hà Nội, 11307, Việt Nam", ,  , 
121,Trung Tâm Âm Nhạc OPEN MUSIC,https://www.facebook.com/hocpianochuyennghiep/,"Nhạc cụ, Nghệ thuật nhí khác",Đào tạo nhí,20.982566,105.805285,Phường Thanh Liệt,"Phường Thanh Liệt, Hà Nội, 10135, Việt Nam",https://www.google.com/maps/place/Trung+T%C3%A2m+%C3%82m+Nh%E1%BA%A1c+OPEN+MUSIC/data=!4m7!3m6!1s0x3135ac8622b3fbed:0x1f5c07f0ab653e76!8m2!3d20.9837013!4d105.8084479!16s%2Fg%2F11c7wgbfk9!19sChIJ7fuzIoasNTERdj5lq_AHXB8?authuser=0&hl=en&rclk=1, ,https://www.facebook.com/chuyendayamnhac
122,Trung tâm âm nhạc Piano Fun,https://pianofun.edu.vn/,Nhạc cụ,"Đào tạo nhí, Đào tạo người lớn",20.957267,105.766063,Phường Kiến Hưng,"Khu đô thị Văn Phú, Phường Kiến Hưng, Hà Nội, 10189, Việt Nam",https://www.google.com/maps/place/Trung+t%C3%A2m+%C3%A2m+nh%E1%BA%A1c+Piano+Fun/data=!4m7!3m6!1s0x313452daa6e56249:0x754e00742739cdc9!8m2!3d20.9572669!4d105.7660631!16s%2Fg%2F11hf8byhc5!19sChIJSWLlptpSNDERyc05J3QATnU?authuser=0&hl=en&rclk=1, ,https://pianofun.edu.vn/
123,Trung Tâm Âm Nhạc T-Music,https://www.facebook.com/trungtamamnhacTMusic/?locale=vi_VN,"Nhạc cụ, Nghệ thuật nhí khác",Đào tạo nhí,20.973796,105.868933,Phường Hoàng Mai,"Gelexia Riverside, Phường Hoàng Mai, Hà Nội, 11720, Việt Nam",  https://www.google.com/maps/place/Trung+T%C3%A2m+%C3%82m+Nh%E1%BA%A1c+T-Music/data=!4m7!3m6!1s0x3135ac6a32cea77f:0x80b3a0e5180bdfac!8m2!3d20.9737965!4d105.8689332!16s%2Fg%2F11g6rkyfpf!19sChIJf6fOMmqsNTERrN8LGOWgs4A?authuser=0&hl=en&rclk=1 , ,  
124,  Trung Tâm Âm Nhạc Vincent Music ,https://www.facebook.com/VincentMusicPro/?locale=vi_VN,Nhạc cụ,Đào tạo nhí,21.004383,105.86954,Phường Vĩnh Tuy,"Ngõ 884 Phố Minh Khai, Phường Vĩnh Tuy, Hà Nội, 11622, Việt Nam", ,  , 
126,  Trung Tâm Bồi Dưỡng Kỹ Năng Emi ,https://emi.edu.vn/khoa-hoc-am-nhac,"Nhạc cụ, Nghệ thuật nhí khác",Đào tạo nhí,20.996535,105.745948,Phường Tây Mỗ,"Khu chức năng đô thị Tây Mỗ, Phường Tây Mỗ, Hà Nội, 10070, Việt Nam", ,  , 
128,  Trung Tâm Bồi Dưỡng Nghệ Thuật & Năng Khiếu MPEC (MPEEC English School) ,https://www.facebook.com/MPEECFranchise/,Nghệ thuật nhí khác,Đào tạo nhí,21.071337,105.79222,Phường Xuân Đỉnh,"306, Đường Xuân Đỉnh, Cáo Đỉnh, Phường Xuân Đỉnh, Hà Nội, 10264, Việt Nam", ,  , 
129,  Trung Tâm Bồi Dưỡng Văn Hoá Và Nghệ Thuật ,https://www.facebook.com/TwinsBvn/,Nhạc cụ,Đào tạo nhí,21.001179,105.866304,Phường Vĩnh Tuy,"Ngách 61/10 Phố Lạc Trung, Phường Vĩnh Tuy, Hà Nội, 11622, Việt Nam", ,  , 
130,  Trung tâm bồi dưỡng văn hóa và nghệ thuật Dreamlight Edu ,https://dreamlight.edu.vn/khoa-hoc-dan-piano-tai-ha-noi-chat-luong-va-uy-tin/,Nhạc cụ,Đào tạo nhí,20.984261,105.838014,Phường Phương Liệt,"Phường Phương Liệt, Hà Nội, 11412, Việt Nam", ,  , 
131,Trung tâm dạy piano Mi Trầm, ,Nhạc cụ,Đào tạo nhí,20.993856,105.806581,Phường Thanh Xuân,"Hầm chui Thanh Xuân, Phường Thanh Xuân, Hà Nội, 11417, Việt Nam", , , 
132,  Trung Tâm Đào Tạo Âm Nhạc & Nghệ Thuật Art Meets Music (ART MEETS MUSIC ACADEMY) ,https://artmeetsmusic.edu.vn/,"Hát, Nhạc cụ","Đào tạo nhí, Đào tạo người lớn",20.997895,105.806367,Phường Thanh Xuân,"Chung Cư Mỹ Sơn, Ngõ 90 Nguyễn Tuân, Phường Thanh Xuân, Hà Nội, 11417, Việt Nam",https://www.google.com/maps/place/Trung+T%C3%A2m+%C4%90%C3%A0o+T%E1%BA%A1o+%C3%82m+Nh%E1%BA%A1c+%26+Ngh%E1%BB%87+Thu%E1%BA%ADt+Art+Meets+Music+%28ART+MEETS+MUSIC+ACADEMY%29/data=!4m7!3m6!1s0x3135ad000d3cb8cf:0x250826b3a06da088!8m2!3d20.9978949!4d105.806367!16s%2Fg%2F11vs27zx0s!19sChIJz7g8DQCtNTERiKBtoLMmCCU?authuser=0&hl=en&rclk=1,  ,https://artmeetsmusic.edu.vn/
133,  TRUNG TÂM ĐÀO TẠO ÂM NHẠC MUSIC SOUL ,https://www.facebook.com/musicsoul.vn/?locale=vi_VN,"Hát, Nhạc cụ, Dance, Nghệ thuật nhí khác",Đào tạo nhí,21.013846,105.796521,Phường Yên Hòa,"Ngõ 123 Trung Kính, Phường Yên Hòa, Hà Nội, 11312, Việt Nam", ,  , 
134,Trung tâm đào tạo MC DreamDraw,https://www.facebook.com/McDreamDraw/,MC,"Đào tạo nhí, Đào tạo người lớn",21.014452,105.821844,Phường Đống Đa,"Trung tâm Văn hóa - Thông tin & Thể thao Đống Đa, 22, Phố Đặng Tiến Đông, Phường Đống Đa, Hà Nội, 11527, Việt Nam", , , 
135,  Trung tâm đào tạo kỹ năng mềm - Học viện Nông nghiệp Việt Nam ,https://trungtamkynangmem.vnua.edu.vn/,Kỹ năng mềm khác,Đào tạo người lớn,21.005213,105.932075,Xã Gia Lâm,"Đài Phun Nước, Đường S, Xã Gia Lâm, Hà Nội, 08443, Việt Nam", ,  , 
136,  Trung Tâm Đào Tạo Kỹ Năng Rose Skills ,https://www.facebook.com/roseskills/?locale=vi_VN,"Kỹ năng mềm khác, MC",Đào tạo nhí,20.928349,105.851997,Xã Thanh Trì,"Xã Thanh Trì, Hà Nội, 11707, Việt Nam", ,  , 
137,  Trung Tâm Đào Tạo Kỹ Năng You Can Now ,https://youcannow.vn/,"Kỹ năng mềm khác, MC",Đào tạo người lớn,21.002465,105.820797,Phường Khương Đình,"Ngõ 369 Đường Trường Chinh, Phường Khương Đình, Hà Nội, 11410, Việt Nam", ,  , 
138,Trung tâm đào tạo MC - SuKha,https://www.mcsukha.vn/,"Kỹ năng mềm khác, MC","Đào tạo người lớn, Đào tạo nhí",21.064695,105.807529,Phường Tây Hồ,"H10, Ngách 28/9 Xuân La, Quan La Sở, Phường Tây Hồ, Hà Nội, 10206, Việt Nam", , , 
139,"  Trung tâm đào tạo MC chuyên nghiệp, MC nhí Vietskil ",https://vietskill.com.vn/,"Kỹ năng mềm khác, MC, Diễn viên","Đào tạo người lớn, Đào tạo nhí",21.018597,105.81049,Phường Láng,"51, Phố Huỳnh Thúc Kháng, Phường Láng, Hà Nội, 11513, Việt Nam", ,  , 
140,Trung tâm đào tạo MC Sự Kiện Văn Minh,https://www.facebook.com/hocvienmc.edu.vn/?locale=vi_VN,"Kỹ năng mềm khác, MC",Đào tạo người lớn,20.993578,105.808577,Phường Khương Đình,"Viện Vật liệu Xây dựng, Ngõ 85 Phố Hạ Đình, Phường Khương Đình, Hà Nội, 11410, Việt Nam",https://www.google.com/maps/place/Trung+t%C3%A2m+%C4%91%C3%A0o+t%E1%BA%A1o+MC+S%E1%BB%B1+Ki%E1%BB%87n+V%C4%83n+Minh/data=!4m7!3m6!1s0x3135ad5c0ba424c9:0xcd074c83ac78470e!8m2!3d20.9774274!4d105.7839462!16s%2Fg%2F11rb46b80l!19sChIJySSkC1ytNTERDkd4rINMB80?authuser=0&hl=en&rclk=1, ,https://mcvanminh.com/
141,  Trung Tâm Đào Tạo Nghệ Thuật - Vic Entertainment ,https://www.facebook.com/profile.php?id=100075717639392,MC,"Đào tạo người lớn, Đào tạo nhí",21.013914,105.832031,Phường Đống Đa,"Trường Trung học phổ thông Lê Quý Đôn - Đống Đa, 195, Ngõ Xã Đàn 2, Phường Đống Đa, Hà Nội, 11527, Việt Nam", ,  , 
142,  Trung Tâm Đào Tạo Nghệ Thuật Artemis ,https://www.facebook.com/Artemis1102/,"MC, Diễn viên, Người mẫu",Đào tạo nhí,21.013864,105.832235,Phường Đống Đa,"Trường Trung học phổ thông Lê Quý Đôn - Đống Đa, 195, Ngõ Xã Đàn 2, Phường Đống Đa, Hà Nội, 11527, Việt Nam", ,  , 
143,  Trung Tâm Đào Tạo Nghệ Thuật Bạch Dương ,https://www.facebook.com/daotaobieudiennghethuatbachduong/,"Hát, Nhạc cụ, Nghệ thuật nhí khác","Đào tạo nhí, Đào tạo người lớn",20.973539,105.786671,Phường Hà Đông,"Phố Văn Yên, Khu đô thị Văn Quán, Phường Hà Đông, Hà Nội, 12100, Việt Nam", ,  , 
144,  Trung tâm Đào tạo nghệ thuật Bear Art Center ,https://www.facebook.com/bearartcenter/?locale=vi_VN,"Nghệ thuật nhí khác, MC, Dance",Đào tạo nhí,20.997828,105.821291,Phường Khương Đình,"BIDV, 225, Phố Hoàng Văn Thái, Phường Khương Đình, Hà Nội, 11410, Việt Nam", ,  , 
145,  Trung Tâm Đào Tạo Nghệ Thuật Cho Bé L'espace Art ,https://www.facebook.com/khonggiannghethuatthieunhi/?locale=vi_VN,"Nghệ thuật nhí khác, Nhạc cụ",Đào tạo nhí,20.971066,105.827514,Phường Định Công,"Linh Đàm, Phường Định Công, Hà Nội, 11717, Việt Nam", ,  , 
146,  Trung Tâm Đào Tạo Nghệ Thuật MANGO ,https://www.facebook.com/TrungTamDaoTaoNgheThuatMANGOThuongTin/,"Nhạc cụ, Hát","Đào tạo nhí, Đào tạo người lớn",20.864114,105.897037,Xã Hồng Vân,"Xã Hồng Vân, Hà Nội, Việt Nam", ,  , 
147,  TRUNG TÂM ĐÀO TẠO NGHỆ THUẬT MC MỸ VÂN ,https://mcmyvan.com/khoahoc/,"MC, Kỹ năng mềm khác","Đào tạo nhí, Đào tạo người lớn",21.022386,105.843565,Phường Cửa Nam,"TuoiTreGoClub, 91, Phố Trần Hưng Đạo, Phường Cửa Nam, Hà Nội, 11018, Việt Nam",  https://www.google.com/maps/place/TRUNG+T%C3%82M+%C4%90%C3%80O+T%E1%BA%A0O+NGH%E1%BB%86+THU%E1%BA%ACT+MC+M%E1%BB%B8+V%C3%82N/data=!4m7!3m6!1s0x3135ab004ace79bd:0x1fce3d5e12546065!8m2!3d21.0223859!4d105.843565!16s%2Fg%2F11w84nqx2m!19sChIJvXnOSgCrNTERZWBUEl49zh8?authuser=0&hl=en&rclk=1 ,  ,  
150,Trung Tâm Đào Tạo Tài Năng Nhí Kids+,https://www.facebook.com/tainangnhikidsplus/?locale=vi_VN,MC,Đào tạo nhí,21.023794,105.82246,Phường Ô Chợ Dừa,"Trường Đại học Văn hoá Hà Nội, 418, Đường La Thành, Phường Ô Chợ Dừa, Hà Nội, 11511, Việt Nam",  https://www.google.com/maps/place/Trung+T%C3%A2m+%C4%90%C3%A0o+T%E1%BA%A1o+T%C3%A0i+N%C4%83ng+Nh%C3%AD+Kids%2B/data=!4m7!3m6!1s0x3135ab5c1c67145f:0xd3fdf3e8b2b21334!8m2!3d21.0109779!4d105.8201988!16s%2Fg%2F11kk7w05wm!19sChIJXxRnHFyrNTERNBOysujz_dM?authuser=0&hl=en&rclk=1 , ,  
151,  Trung tâm Đào tạo và Nghệ thuật FFC ,https://www.ffc.edu.vn/,"Người mẫu, Hát, Nhạc cụ, Diễn viên, Kỹ năng mềm khác, Nghệ thuật nhí khác",Đào tạo nhí,21.010978,105.820199,Phường Đống Đa,"Phố Trung Liệt, Thái Hà Ấp, Phường Đống Đa, Hà Nội, 11527, Việt Nam", ,  , 
152,  Trung tâm đào tạo và phát triển năng khiếu Happy House ,https://www.facebook.com/ttnangkhieuHappyhouse/,"Hát, Nhạc cụ",Đào tạo nhí,21.007417,105.808141,Phường Thanh Xuân,"VIB, Đường Lê Văn Lương, Phường Thanh Xuân, Hà Nội, 11417, Việt Nam", ,  , 
153,  Trung tâm giáo dục và nghệ thuật FELIX ,https://www.facebook.com/felix.education.academy/photos?locale=vi_VN,Nhạc cụ,"Đào tạo người lớn, Đào tạo nhí",21.011245,105.820052,Phường Đống Đa,"Phố Trung Liệt, Thái Hà Ấp, Phường Đống Đa, Hà Nội, 11527, Việt Nam", ,  , 
154,Trung tâm khuyến nhạc Kidmusic,https://www.facebook.com/p/Trung-t%C3%A2m-khuy%E1%BA%BFn-nh%E1%BA%A1c-Kidmusic-100057140872329/?locale=vi_VN,Nhạc cụ,"Đào tạo nhí, Đào tạo người lớn",21.011102,105.820074,Phường Đống Đa,"Phố Trung Liệt, Thái Hà Ấp, Phường Đống Đa, Hà Nội, 11527, Việt Nam", , , 
155,Trung Tâm KIDSTARS,https://kidstars.net/,Nhạc cụ,Đào tạo nhí,21.01073,105.859369,Phường Hai Bà Trưng,"Sửa xe máy Tiến Nam, 111, Ngõ 190 Phố Lò Đúc, Phường Hai Bà Trưng, Hà Nội, 11626, Việt Nam", , , 
156,  Trung tâm Kosmo Art - Lớp Học Nghệ Thuật ,https://www.facebook.com/profile.php?id=100067638589297&sk=photos_albums,"Nhạc cụ, Nghệ thuật nhí khác",Đào tạo nhí,21.046751,105.797361,Phường Nghĩa Đô,"Đường Xuân Tảo, Phường Nghĩa Đô, Hà Nội, 10072, Việt Nam", ,  , 
157,  Trung Tâm Magic Music School ,https://magicmusicschool.com.vn/khoa-hoc/tuyen-sinh-khoa-thang-5-2021-n39-217,"Hát, Nhạc cụ",Đào tạo nhí,21.00997,105.79819,Phường Yên Hòa,"Ngõ 166 Đường Trần Duy Hưng, Trung Kính, Phường Yên Hòa, Hà Nội, 11312, Việt Nam", ,  , 
158,Trung tâm năng khiếu Smoo Art, ,Nghệ thuật nhí khác,Đào tạo nhí,21.009164,105.79339,Phường Yên Hòa,"Chung cư Vimeco, Phường Yên Hòa, Hà Nội, 11312, Việt Nam", , , 
159,Trung Tâm Nghệ Thuật Adam,http://dayhocnhac.vn/,"MC, Hát, Nhạc cụ","Đào tạo nhí, Đào tạo người lớn",20.995261,105.86954,Phường Vĩnh Tuy,"tiNiWorld, Đường Số 5 Times City, Vinhomes Times City, Phường Vĩnh Tuy, Hà Nội, 11622, Việt Nam",https://www.google.com/maps/place/Trung+T%C3%A2m+Ngh%E1%BB%87+Thu%E1%BA%ADt+Adam/data=!4m7!3m6!1s0x3135ab7366c73541:0x6f5af61b3b0b627!8m2!3d21.031726!4d105.8224838!16s%2Fg%2F11b86mltww!19sChIJQTXHZnOrNTERJ7aws2Gv9QY?authuser=0&hl=en&rclk=1, ,http://dayhocnhac.vn/
160,Trung Tâm Nghệ Thuật An Quân, ,"Nhạc cụ, MC",Đào tạo nhí,20.973402,105.75744,Phường Dương Nội,"Khu đô thị An Hưng, Phường Dương Nội, Hà Nội, 10189, Việt Nam", , , 
161,  Trung Tâm Nghệ Thuật Art Beginning ,https://www.facebook.com/p/Trung-T%C3%A2m-Ngh%E1%BB%87-Thu%E1%BA%ADt-Art-Beginning-100067004972723/,Nhạc cụ,Đào tạo nhí,21.044308,105.796149,Phường Nghĩa Đô,"Ngõ 3 Phố Nghĩa Tân, Phường Nghĩa Đô, Hà Nội, 11307, Việt Nam", ,  , 
162,  Trung tâm nghệ thuật Be Singer - Nhà hát múa rối ,https://www.facebook.com/trungtambesinger/photos?locale=vi_VN,"Hát, Nghệ thuật nhí khác",Đào tạo nhí,21.002069,105.822046,Phường Khương Đình,"Ngõ 361 Trường Chinh, Phường Khương Đình, Hà Nội, 11410, Việt Nam", ,  , 
163,Trung tâm nghệ thuật Cánh Diều,https://www.facebook.com/p/Trung-t%C3%A2m-ngh%E1%BB%87-thu%E1%BA%ADt-C%C3%A1nh-Di%E1%BB%81u-61561789615895/,"MC, Nhạc cụ, Hát",Đào tạo người lớn,20.986772,105.799518,Phường Thanh Liệt,"Phường Thanh Liệt, Hà Nội, 12011, Việt Nam",  https://www.google.com/maps/place/Trung+t%C3%A2m+ngh%E1%BB%87+thu%E1%BA%ADt+C%C3%A1nh+Di%E1%BB%81u/data=!4m7!3m6!1s0x3135ad006b70c135:0x89bda109c4586ec!8m2!3d20.9858547!4d105.7987439!16s%2Fg%2F11w4nqht31!19sChIJNcFwawCtNTER7IZFnBDamwg?authuser=0&hl=en&rclk=1 , ,  
164,  Trung Tâm Nghệ Thuật Cremusic ,https://www.facebook.com/Cremusic?locale=vi_VN,"Hát, Nhạc cụ",Đào tạo nhí,20.985855,105.798744,Phường Thanh Liệt,"39, Phố Triều Khúc, Phường Thanh Liệt, Hà Nội, 12011, Việt Nam", ,  , 
165,  Trung Tâm Nghệ Thuật Discover Talent ,https://www.facebook.com/p/Trung-T%C3%A2m-Ngh%E1%BB%87-Thu%E1%BA%ADt-Discover-Talent-100064494744097/?locale=vi_VN,"Nghệ thuật nhí khác, Hát",Đào tạo nhí,21.045529,105.784463,Phường Nghĩa Đô,"Nhà thuốc Hưng Gia, 9, Phố Đặng Thùy Trâm, Phường Nghĩa Đô, Hà Nội, 11307, Việt Nam", ,  , 
166,Trung Tâm Nghệ Thuật Greenland,https://www.facebook.com/TrungTamNgheThuatGreenlandMusic/?locale=vi_VN,"Nhạc cụ, Nghệ thuật nhí khác",Đào tạo nhí,21.033019,105.772653,Phường Từ Liêm,"74, Phố Nguyễn Hoàng, Phường Từ Liêm, Hà Nội, 10085, Việt Nam", , , 
167,Trung Tâm Nghệ Thuật Guitara,https://guitara.vn/,"Nhạc cụ, Hát",Đào tạo người lớn,20.974444,105.763656,Phường Hà Đông,"WinMart+, Phố Nông Quốc Chấn, Khu đô thị Văn Khê, Phường Hà Đông, Hà Nội, 10189, Việt Nam", , , 
168,Trung Tâm Nghệ Thuật Hapi Art,https://www.facebook.com/HapiArt.VN/photos?locale=vi_VN,"Hát, Dance, MC, Nghệ thuật nhí khác",Đào tạo nhí,21.024067,105.846059,Phường Cửa Nam,"Đại sứ quán Cuba, 65, Phố Lý Thường Kiệt, Phường Cửa Nam, Hà Nội, 10242, Việt Nam", , , 
169,  Trung Tâm Nghệ Thuật Happy Melody ,https://www.facebook.com/profile.php?id=61559178102236&sk=photos&locale=vi_VN,Nhạc cụ,Đào tạo nhí,21.031812,105.778062,Phường Từ Liêm,"Học viện Biên phòng, Ngõ 120 Phố Trần Bình, Phường Từ Liêm, Hà Nội, 10085, Việt Nam", ,  , 
170,  Trung tâm Nghệ thuật HappyLand Piano ,https://www.facebook.com/groups/291676811905226/user/100066878640066/,"Nhạc cụ, Nghệ thuật nhí khác",Đào tạo nhí,21.031514,105.778058,Phường Từ Liêm,"Phố Trần Bình, Phường Từ Liêm, Hà Nội, 10085, Việt Nam", ,  , 
171,  Trung Tâm Nghệ Thuật Havana ,https://www.facebook.com/nghethuathavana/?locale=vi_VN,"MC, Nghệ thuật nhí khác",Đào tạo nhí,21.051539,105.792975,Phường Nghĩa Đô,"Phường Nghĩa Đô, Hà Nội, 11307, Việt Nam", ,  , 
172,  Trung Tâm Nghệ Thuật Hoa Hướng Dương (SFAC) ,https://www.facebook.com/hoahuongduongartcenter/?locale=vi_VN,Nhạc cụ,Đào tạo nhí,21.064336,105.884074,Phường Việt Hưng,"Đường 40 m từ đê Ngọc Thụy đến Khu đô thị Thượng Thanh, Phường Việt Hưng, Hà Nội, 91109, Việt Nam", ,  , 
173,Trung tâm Nghệ thuật Hồ Thiên Nga,https://hothiennga.vn/,"MC, Người mẫu, Hát, Nhạc cụ, Nghệ thuật nhí khác",Đào tạo nhí,21.056856,105.888021,Phường Việt Hưng,"Ngõ 20 Phố Thượng Thanh, Phường Việt Hưng, Hà Nội, 11810, Việt Nam", , , 
174,Trung Tâm Nghệ thuật IRIS - Việt Hưng,https://www.facebook.com/IrisArtCenter/?locale=vi_VN,Nhạc cụ,"Đào tạo nhí, Đào tạo người lớn",20.946762,105.853404,Xã Thanh Trì,"Xã Thanh Trì, Hà Nội, 11707, Việt Nam", , , 
175,  Trung Tâm Nghệ Thuật Khánh Ngân ,https://www.facebook.com/trungtamnghethuatkhanhngan/,"Nhạc cụ, Kỹ năng mềm khác, Nghệ thuật nhí khác, MC, Hát", ,20.992269,105.91262,Xã Bát Tràng,"Thôn 3, Xã Bát Tràng, Hà Nội, 11709, Việt Nam", ,  , 
176,Trung Tâm Nghệ Thuật La Thăng,https://www.facebook.com/LaThangMusicVN/?locale=vi_VN,"Hát, Nhạc cụ",Đào tạo nhí,21.037402,105.679927,Xã Dương Hòa,"Ngõ 58 Đường Đắc Sở 1, Xã Dương Hòa, Hà Nội, Việt Nam",https://www.google.com/maps/place/Trung+T%C3%A2m+Ngh%E1%BB%87+Thu%E1%BA%ADt+La+Th%C4%83ng/data=!4m7!3m6!1s0x3135ad37d9cfff93:0x7407fc32ed4d69cd!8m2!3d21.0250362!4d105.8453641!16s%2Fg%2F11c321jxjs!19sChIJk__P2TetNTERzWlN7TL8B3Q?authuser=0&hl=en&rclk=1, ,https://daythanhnhac.vn/
177,Trung tâm nghệ thuật Leo,https://www.facebook.com/leoartcentre/?locale=vi_VN,"Nhạc cụ, Hát",Đào tạo nhí,21.025036,105.845364,Phường Cửa Nam,"Katinat, Phố Quán Sứ, Phường Cửa Nam, Hà Nội, 11018, Việt Nam", , , 
178,  Trung Tâm Nghệ Thuật Music And Me ,https://www.facebook.com/musicandme.art/,"Nhạc cụ, Hát, Nghệ thuật nhí khác",Đào tạo nhí,21.027265,105.828108,Phường Ô Chợ Dừa,"Dandelion Apartments, 55, Ngõ 35 Cát Linh, Phường Ô Chợ Dừa, Hà Nội, 11511, Việt Nam", ,  , 
179,Trung Tâm Nghệ Thuật MV,https://www.facebook.com/trungtamMV/,"MC, Diễn viên, Nhạc cụ, Nghệ thuật nhí khác",Đào tạo nhí,21.031045,105.79008,Phường Cầu Giấy,"Trường Tiểu học Archimedes Academy, Ngõ 2 Phố Thọ Tháp, Phường Cầu Giấy, Hà Nội, 11314, Việt Nam", , , 
180,Trung tâm Nghệ thuật PCS Music,https://www.facebook.com/pcsmusic.thanh.tri/,"Hát, Nhạc cụ",Đào tạo nhí,21.031106,105.790044,Phường Cầu Giấy,"Trường Tiểu học Archimedes Academy, Ngõ 2 Phố Thọ Tháp, Phường Cầu Giấy, Hà Nội, 11314, Việt Nam", , , 
181,Trung Tâm Nghệ Thuật Romantic,https://www.facebook.com/p/Trung-t%C3%A2m-ngh%E1%BB%87-thu%E1%BA%ADt-Romantic-Thanh-Tr%C3%AC-100057608642351/?locale=vi_VN,Nhạc cụ,Đào tạo nhí,20.941573,105.849083,Xã Thanh Trì,"Đường Vũ Lăng, Xã Thanh Trì, Hà Nội, 11707, Việt Nam", , , 
182,Trung Tâm Nghệ Thuật Royal,https://www.facebook.com/trungtamnghethuatroyal/?locale=vi_VN,Nhạc cụ,Đào tạo nhí,21.049263,105.845236,Phường Hồng Hà,"Trường Trung cấp Xây dựng Hà Nội, Đường Số 11, Phường Hồng Hà, Hà Nội, 11025, Việt Nam", , , 
183,Trung Tâm Nghệ Thuật S-Music,https://www.facebook.com/trungtamsmusic/?locale=vi_VN,"Hát, Nhạc cụ","Đào tạo nhí, Đào tạo người lớn",21.006921,105.804574,Phường Yên Hòa,"17T8 Trung Hòa Nhân Chính, 17T8, Ngõ 60 Phố Nguyễn Thị Định, Phường Yên Hòa, Hà Nội, 11312, Việt Nam",https://www.google.com/maps/place/Trung+T%C3%A2m+Ngh%E1%BB%87+Thu%E1%BA%ADt+S-Music/data=!4m7!3m6!1s0x3135ad3d9d189b33:0xc6c71f31065bbd8a!8m2!3d21.0093693!4d105.8010088!16s%2Fg%2F11t3cx4nk1!19sChIJM5sYnT2tNTERir1bBjEfx8Y?authuser=0&hl=en&rclk=1, ,http://www.smusic.vn/
184,Trung tâm nghệ thuật Sense Art,https://www.facebook.com/trungtamnghethuatsenseart/?locale=vi_VN,"Nhạc cụ, Hát, Nghệ thuật nhí khác",Đào tạo nhí,21.009369,105.801009,Phường Yên Hòa,"17T2 Trung Hòa Nhân Chính, 17T2, Phố Hoàng Đạo Thúy, Khu đô thị Trung Hòa – Nhân Chính, Phường Yên Hòa, Hà Nội, 11312, Việt Nam", , , 
185,Trung Tâm Nghệ Thuật Soleil,https://www.facebook.com/Soleil.musiccenter/,"MC, Hát, Nhạc cụ, Dance, Nghệ thuật nhí khác",Đào tạo nhí,21.033301,105.761415,Phường Từ Liêm,"Ngõ 47 Lưu Hữu Phước, Khu đô thị Mỹ Đình 1, Phường Từ Liêm, Hà Nội, 10085, Việt Nam", , , 
186,Trung Tâm Nghệ Thuật SON MUSIC,https://www.facebook.com/profile.php?id=100076563016855,Nhạc cụ,"Đào tạo nhí, Đào tạo người lớn",21.048122,105.795323,Phường Nghĩa Đô,"Ngách 6 Ngõ 7 Nghĩa Đô, Phường Nghĩa Đô, Hà Nội, 11307, Việt Nam",https://www.google.com/maps/place/Trung+T%C3%A2m+Ngh%E1%BB%87+Thu%E1%BA%ADt+SON+MUSIC/data=!4m7!3m6!1s0x3135ad29507f4827:0x8204716980efd597!8m2!3d20.9827903!4d105.815379!16s%2Fg%2F11rv2trj32!19sChIJJ0h_UCmtNTERl9XvgGlxBII?authuser=0&hl=en&rclk=1, ,https://www.facebook.com/profile.php?id=100076563016855
187,  Trung Tâm Nghệ Thuật Sunshine Melody ,https://www.facebook.com/trungtamnghethuatsunshinemelody/?locale=vi_VN,"Hát, Nhạc cụ, Nghệ thuật nhí khác",Đào tạo nhí,20.960768,105.800559,Phường Thanh Liệt,"Đường Cầu Bươu, Phường Thanh Liệt, Hà Nội, 10135, Việt Nam", ,  , 
188,  Trung Tâm Nghệ Thuật The Light ,https://www.facebook.com/thelightpiano/?locale=vi_VN,"Hát, Nhạc cụ, Nghệ thuật nhí khác","Đào tạo nhí, Đào tạo người lớn",21.017082,105.812586,Phường Láng,"Ngõ 45 Phố Nguyên Hồng, Phường Láng, Hà Nội, 11528, Việt Nam", ,  , 
189,  Trung Tâm Nghệ Thuật Thynk Junior ,https://www.facebook.com/ThynkJunior/?locale=vi_VN,"Nhạc cụ, Nghệ thuật nhí khác, Hát","Đào tạo nhí, Đào tạo người lớn",21.046261,105.792702,Phường Nghĩa Đô,"Tổng công ty Lưu ký và Bù trừ chứng khoán Việt Nam, 112, Đường Hoàng Quốc Việt, Phường Nghĩa Đô, Hà Nội, 11307, Việt Nam", ,  , 
190,Trung Tâm Piano Musiclight Hằng Nga,https://pianohangnga.com/dao-tao-33.html,Nhạc cụ,"Đào tạo người lớn, Đào tạo nhí",21.044991,105.792835,Phường Nghĩa Đô,"Thuỳ Chi Art & Yoga, Số 1 Tầng 4 A24, Ngõ 385 Đường Hoàng Quốc Việt, Phường Nghĩa Đô, Hà Nội, 10000, Việt Nam",  https://www.google.com/maps/place/Trung+T%C3%A2m+Piano+Musiclight+H%E1%BA%B1ng+Nga/data=!4m7!3m6!1s0x3135ad6e924d670b:0x51b670e76593b335!8m2!3d20.9807691!4d105.7995584!16s%2Fg%2F11fphglzv1!19sChIJC2dNkm6tNTERNbOTZedwtlE?authuser=0&hl=en&rclk=1 , ,  
191,Trung Tâm Piano River Music,https://www.facebook.com/rivermusichadong/,Nhạc cụ,Đào tạo nhí,20.980769,105.799558,Phường Thanh Liệt,"Ngõ 188 Phố Triều Khúc, Phường Thanh Liệt, Hà Nội, 10135, Việt Nam", , , 
192,  Trung Tâm Piano Và Nghệ Thuật Cho Trẻ Em - Magic Music School ,https://www.facebook.com/magicmusicschool.com.vn/?locale=vi_VN,"Hát, Nhạc cụ","Đào tạo nhí, Đào tạo người lớn",20.968212,105.77112,Phường Hà Đông,"Phố Thành Công, Phường Hà Đông, Hà Nội, 10189, Việt Nam", ,  , 
193,Trung Tâm Smile Music,https://www.facebook.com/guitarlinhnam/?locale=vi_VN,"Nhạc cụ, Hát",Đào tạo nhí,20.986376,105.869937,Phường Tương Mai,"Đường Lĩnh Nam, Phường Tương Mai, Hà Nội, 11715, Việt Nam",  https://www.google.com/maps/place/Trung+T%C3%A2m+Smile+Music/data=!4m7!3m6!1s0x3135ac192db1e5ad:0xb01f9d263461b56f!8m2!3d20.9861434!4d105.8699211!16s%2Fg%2F11j8wk_zg_!19sChIJreWxLRmsNTERb7VhNCadH7A?authuser=0&hl=en&rclk=1 , ,  
194,Trung Tâm Sol Piano,https://www.facebook.com/solpianoankhanh/,Nhạc cụ,Đào tạo nhí,20.986143,105.869921,Phường Tương Mai,"Đường Lĩnh Nam, Phường Tương Mai, Hà Nội, 11715, Việt Nam", , , 
195,Trung Tâm Tài Năng Pink Arts,https://www.facebook.com/pinkcloud.edu.vn/?locale=vi_VN,"Nhạc cụ, Hát, MC, Nghệ thuật nhí khác",Đào tạo nhí,21.003066,105.731355,Xã An Khánh,"Khu đô thị mới Lê Trọng Tấn Geleximco - Khu A, Xã An Khánh, Hà Nội, 10070, Việt Nam", , , 
196,  Trung Tâm TED Saigon Art Education Center ,https://tedsaigon.edu.vn/chi-nhanh/,"Nhạc cụ, Nghệ thuật nhí khác","Đào tạo nhí, Đào tạo người lớn",21.02727,105.78669,Phường Cầu Giấy,"Sky Park Residence, 3, Phố Tôn Thất Thuyết, Phường Cầu Giấy, Hà Nội, 11314, Việt Nam", ,  , 
197,Trung Tâm Thanh Nhạc EDUMESA,https://edumesa.vn/,Hát,"Đào tạo nhí, Đào tạo người lớn",21.034406,105.816693,Phường Ngọc Hà,"Ngõ 34 Phố Vạn Bảo, Phường Ngọc Hà, Hà Nội, 11119, Việt Nam",https://www.google.com/maps/place/Trung+T%C3%A2m+Thanh+Nh%E1%BA%A1c+EDUMESA/data=!4m7!3m6!1s0x3135ab1289c400d3:0xe2ffc8f48b067e6d!8m2!3d21.0364702!4d105.8163968!16s%2Fg%2F11c42m8f6c!19sChIJ0wDEiRKrNTERbX4Gi_TI_-I?authuser=0&hl=en&rclk=1, ,https://edumesa.vn/
198,Trung tâm Thanh nhạc Pageno Music,https://pagenomusic.com/,"Nhạc cụ, Hát","Đào tạo nhí, Đào tạo người lớn",21.03647,105.816397,Phường Ngọc Hà,"Trung tâm Văn hóa và Phát triển Năng lực số Thanh niên, Phố Đội Cấn, Liễu Giai, Phường Ngọc Hà, Hà Nội, 11119, Việt Nam",https://www.google.com/maps/place/Trung+t%C3%A2m+Thanh+nh%E1%BA%A1c+Pageno+Music/data=!4m7!3m6!1s0x3135ab52fe0f7d35:0x9311a435436ec0cd!8m2!3d21.0163128!4d105.8243356!16s%2Fg%2F11w9y_d6_3!19sChIJNX0P_lKrNTERzcBuQzWkEZM?authuser=0&hl=en&rclk=1, ,https://pagenomusic.com/
199,  Trung Tâm Việt Thương Music School ,https://vietthuong.edu.vn/,"Nhạc cụ, Hát","Đào tạo nhí, Đào tạo người lớn",21.016313,105.824336,Phường Đống Đa,"Ngõ 25 Phố Võ Văn Dũng, Phường Đống Đa, Hà Nội, 11527, Việt Nam", ,  , 
200,Viện Âm Nhạc Hà Nội,http://vienamnhachanoi.edu.vn/,"Hát, Nhạc cụ","Đào tạo người lớn, Đào tạo nhí",21.03545,105.794688,Phường Cầu Giấy,"BHD Star Discovery Cầu Giấy, 302, Đường Cầu Giấy, Phường Cầu Giấy, Hà Nội, 11314, Việt Nam",https://www.google.com/maps/place/Vi%E1%BB%87n+%C3%82m+Nh%E1%BA%A1c+H%C3%A0+N%E1%BB%99i/data=!4m7!3m6!1s0x3135ab8c88d59d59:0x2671b5772c329c6b!8m2!3d21.0142458!4d105.8500417!16s%2Fg%2F11ggvxd930!19sChIJWZ3ViIyrNTERa5wyLHe1cSY?authuser=0&hl=en&rclk=1, ,http://vienamnhachanoi.edu.vn/
201,Wekid - Đào tạo mc nhí,https://wekid.vn/,MC,Đào tạo nhí,21.002915,105.802426,Phường Thanh Xuân,"Golden West Residence, 2, Phố Lê Văn Thiêm, Phường Thanh Xuân, Hà Nội, 11417, Việt Nam",https://www.google.com/maps/place/Wekid+-+%C4%90a%CC%80o+ta%CC%A3o+mc+nhi%CC%81/data=!4m7!3m6!1s0x3135abea62a36aa5:0x18e69dfd834d3424!8m2!3d21.0074812!4d105.805912!16s%2Fg%2F11h3tg_x8s!19sChIJpWqjYuqrNTERJDRNg_2d5hg?authuser=0&hl=en&rclk=1, ,https://wekid.vn/
202,Wise MC - Đào tạo MC thực chiến,https://www.facebook.com/daynghemc/?locale=vi_VN,MC,Đào tạo người lớn,21.007481,105.805912,Phường Yên Hòa,"Ngõ 131 Phố Nguyễn Thị Định, Phường Yên Hòa, Hà Nội, 11312, Việt Nam",  https://www.google.com/maps/place/Wise+MC+-+%C4%90%C3%A0o+t%E1%BA%A1o+MC+th%E1%BB%B1c+chi%E1%BA%BFn/data=!4m7!3m6!1s0x31345300557789c7:0x1c6fe2c1d0bbf0c1!8m2!3d20.984048!4d105.7698593!16s%2Fg%2F11w1qpf5jw!19sChIJx4l3VQBTNDERwfC70MHibxw?authuser=0&hl=en&rclk=1 , ,  
203,Xuan Lan's Academy,https://xuanlanacademy.vn/,Người mẫu,Đào tạo người lớn,20.984048,105.769859,Phường Hà Đông,"Làng Nghề Vạn Phúc, Phường Hà Đông, Hà Nội, 10070, Việt Nam", , , 
204,Yamaha Music School,https://vn.yamaha.com/vi/education/course-categories/children/,"Hát, Nhạc cụ","Đào tạo người lớn, Đào tạo nhí",21.015087,105.852534,Phường Hai Bà Trưng,"WinMart+, 17, Phố Hoà Mã, Phường Hai Bà Trưng, Hà Nội, 11626, Việt Nam", , , 
